{"version": 0.6, "generator": "Overpass API 0.7.62.8 e802775f", "osm3s": {"timestamp_osm_base": "2025-10-21T11:54:31Z", "copyright": "The data included in this document is from www.openstreetmap.org. The data is made available under ODbL."}, "elements": [{"type": "node", "id": 2785297205, "lat": 59.9133, "lon": 10.750687, "tags": {"addr:city": "Oslo", "addr:housenumber": "4", "addr:postcode": "0184", "addr:street": "Nygata"}}, {"type": "node", "id": 2785464015, "lat": 59.911009, "lon": 10.759543, "tags": {"addr:city": "Oslo", "addr:housenumber": "15", "addr:postcode": "0191", "addr:street": "Schweigaards gate"}}, {"type": "node", "id": 2785466860, "lat": 59.913638, "lon": 10.750796, "tags": {"addr:city": "Oslo", "addr:housenumber": "16", "addr:postcode": "0184", "addr:street": "Storgata"}}, {"type": "node", "id": 2785549563, "lat": 59.915522, "lon": 10.751804, "tags": {"addr:city": "Oslo", "addr:housenumber": "1", "addr:postcode": "0181", "addr:street": "Arbeidersamfunnets plass"}}, {"type": "node", "id": 2785549576, "lat": 59.919485, "lon": 10.751564, "tags": {"addr:city": "Oslo", "addr:housenumber": "1A", "addr:postcode": "0182", "addr:street": "Brenneriveien"}}, {"type": "node", "id": 2785549587, "lat": 59.914409, "lon": 10.753767, "tags": {"addr:city": "Oslo", "addr:housenumber": "1", "addr:postcode": "0186", "addr:street": "Brugata"}}, {"type": "node", "id": 2785549601, "lat": 59.915681, "lon": 10.753152, "tags": {"addr:city": "Oslo", "addr:housenumber": "5", "addr:postcode": "0183", "addr:street": "Calmeyers gate"}}, {"type": "node", "id": 2785549611, "lat": 59.914037, "lon": 10.756788, "tags": {"addr:city": "Oslo", "addr:housenumber": "1", "addr:postcode": "0186", "addr:street": "Christian Krohgs gate"}}, {"type": "node", "id": 2785549622, "lat": 59.915309, "lon": 10.754279, "tags": {"addr:city": "Oslo", "addr:housenumber": "1", "addr:postcode": "0183", "addr:street": "Ebbells gate"}}, {"type": "node", "id": 2785549634, "lat": 59.913251, "lon": 10.758445, "tags": {"addr:city": "Oslo", "addr:housenumber": "1", "addr:postcode": "0188", "addr:street": "Gr\u00f8nland"}}, {"type": "node", "id": 2785549654, "lat": 59.913501, "lon": 10.755883, "tags": {"addr:city": "Oslo", "addr:housenumber": "1", "addr:postcode": "0184", "addr:street": "Lilletorget"}}, {"type": "node", "id": 2785549681, "lat": 59.912687, "lon": 10.758988, "tags": {"addr:city": "Oslo", "addr:housenumber": "1", "addr:postcode": "0188", "addr:street": "Olafiagangen"}}, {"type": "node", "id": 2785549707, "lat": 59.912418, "lon": 10.758938, "tags": {"addr:city": "Oslo", "addr:housenumber": "1", "addr:postcode": "0188", "addr:street": "Smalgangen"}}, {"type": "node", "id": 2785549765, "lat": 59.914781, "lon": 10.75012, "tags": {"addr:city": "Oslo", "addr:housenumber": "1", "addr:postcode": "0181", "addr:street": "Youngstorget"}}, {"type": "node", "id": 2785549771, "lat": 59.918725, "lon": 10.754048, "tags": {"addr:city": "Oslo", "addr:housenumber": "1", "addr:postcode": "0182", "addr:street": "\u00d8stre Elvebakke"}}, {"type": "node", "id": 2785549785, "lat": 59.914009, "lon": 10.754819, "tags": {"addr:city": "Oslo", "addr:housenumber": "10", "addr:postcode": "0186", "addr:street": "Brugata"}}, {"type": "node", "id": 2785549793, "lat": 59.914673, "lon": 10.758422, "tags": {"addr:city": "Oslo", "addr:housenumber": "10", "addr:postcode": "0186", "addr:street": "Christian Krohgs gate"}}, {"type": "node", "id": 2785549807, "lat": 59.918817, "lon": 10.751889, "tags": {"addr:city": "Oslo", "addr:housenumber": "10", "addr:postcode": "0183", "addr:street": "Jess Carlsens gate"}}, {"type": "node", "id": 2785549835, "lat": 59.911683, "lon": 10.758148, "tags": {"addr:city": "Oslo", "addr:housenumber": "10", "addr:postcode": "0185", "addr:street": "Schweigaards gate"}}, {"type": "node", "id": 2785549840, "lat": 59.912422, "lon": 10.759975, "tags": {"addr:city": "Oslo", "addr:housenumber": "10", "addr:postcode": "0188", "addr:street": "Smalgangen"}}, {"type": "node", "id": 2785549845, "lat": 59.913266, "lon": 10.752615, "tags": {"addr:city": "Oslo", "addr:housenumber": "10", "addr:postcode": "0184", "addr:street": "Stenersgata"}}, {"type": "node", "id": 2785549870, "lat": 59.917008, "lon": 10.750845, "tags": {"addr:city": "Oslo", "addr:housenumber": "10A", "addr:postcode": "0183", "addr:street": "Bernt Ankers gate"}}, {"type": "node", "id": 2785549889, "lat": 59.917095, "lon": 10.751011, "tags": {"addr:city": "Oslo", "addr:housenumber": "10B", "addr:postcode": "0183", "addr:street": "Bernt Ankers gate"}}, {"type": "node", "id": 2785549924, "lat": 59.913043, "lon": 10.759919, "tags": {"addr:city": "Oslo", "addr:housenumber": "11", "addr:postcode": "0188", "addr:street": "Gr\u00f8nland"}}, {"type": "node", "id": 2785549932, "lat": 59.916825, "lon": 10.751292, "tags": {"addr:city": "Oslo", "addr:housenumber": "11", "addr:postcode": "0183", "addr:street": "Mariboes gate"}}, {"type": "node", "id": 2785549948, "lat": 59.913079, "lon": 10.759241, "tags": {"addr:city": "Oslo", "addr:housenumber": "11", "addr:postcode": "0188", "addr:street": "Olafiagangen"}}, {"type": "node", "id": 2785549987, "lat": 59.91489, "lon": 10.750628, "tags": {"addr:city": "Oslo", "addr:housenumber": "11", "addr:postcode": "0181", "addr:street": "Youngs gate"}}, {"type": "node", "id": 2785549993, "lat": 59.916258, "lon": 10.754675, "tags": {"addr:city": "Oslo", "addr:housenumber": "11A", "addr:postcode": "0183", "addr:street": "Calmeyers gate"}}, {"type": "node", "id": 2785550001, "lat": 59.916253, "lon": 10.754823, "tags": {"addr:city": "Oslo", "addr:housenumber": "11B", "addr:postcode": "0183", "addr:street": "Calmeyers gate"}}, {"type": "node", "id": 2785550009, "lat": 59.916347, "lon": 10.754717, "tags": {"addr:city": "Oslo", "addr:housenumber": "11C", "addr:postcode": "0183", "addr:street": "Calmeyers gate"}}, {"type": "node", "id": 2785550026, "lat": 59.917148, "lon": 10.750459, "tags": {"addr:city": "Oslo", "addr:housenumber": "12", "addr:postcode": "0183", "addr:street": "Bernt Ankers gate"}}, {"type": "node", "id": 2785550036, "lat": 59.913933, "lon": 10.755137, "tags": {"addr:city": "Oslo", "addr:housenumber": "12", "addr:postcode": "0186", "addr:street": "Brugata"}}, {"type": "node", "id": 2785550041, "lat": 59.916525, "lon": 10.754719, "tags": {"addr:city": "Oslo", "addr:housenumber": "12", "addr:postcode": "0183", "addr:street": "Calmeyers gate"}}, {"type": "node", "id": 2785550048, "lat": 59.914729, "lon": 10.758515, "tags": {"addr:city": "Oslo", "addr:housenumber": "12", "addr:postcode": "0186", "addr:street": "Christian Krohgs gate"}}, {"type": "node", "id": 2785550075, "lat": 59.915361, "lon": 10.750773, "tags": {"addr:city": "Oslo", "addr:housenumber": "12", "addr:postcode": "0181", "addr:street": "Hammersborggata"}}, {"type": "node", "id": 2785550084, "lat": 59.918672, "lon": 10.752024, "tags": {"addr:city": "Oslo", "addr:housenumber": "12", "addr:postcode": "0183", "addr:street": "Jess Carlsens gate"}}, {"type": "node", "id": 2785550107, "lat": 59.911487, "lon": 10.759407, "tags": {"addr:city": "Oslo", "addr:housenumber": "12", "addr:postcode": "0185", "addr:street": "Schweigaards gate"}}, {"type": "node", "id": 2785550139, "lat": 59.917188, "lon": 10.751772, "tags": {"addr:city": "Oslo", "addr:housenumber": "13", "addr:postcode": "0183", "addr:street": "Mariboes gate"}}, {"type": "node", "id": 2785550181, "lat": 59.915194, "lon": 10.750166, "tags": {"addr:city": "Oslo", "addr:housenumber": "13A", "addr:postcode": "0181", "addr:street": "Torggata"}}, {"type": "node", "id": 2785550194, "lat": 59.916342, "lon": 10.754978, "tags": {"addr:city": "Oslo", "addr:housenumber": "13A", "addr:postcode": "0183", "addr:street": "Calmeyers gate"}}, {"type": "node", "id": 2785550238, "lat": 59.913884, "lon": 10.755403, "tags": {"addr:city": "Oslo", "addr:housenumber": "14", "addr:postcode": "0186", "addr:street": "Brugata"}}, {"type": "node", "id": 2785550265, "lat": 59.918033, "lon": 10.754119, "tags": {"addr:city": "Oslo", "addr:housenumber": "14", "addr:postcode": "0182", "addr:street": "Hausmanns gate"}}, {"type": "node", "id": 2785550276, "lat": 59.917128, "lon": 10.751281, "tags": {"addr:city": "Oslo", "addr:housenumber": "14A", "addr:postcode": "0183", "addr:street": "Mariboes gate"}}, {"type": "node", "id": 2785550323, "lat": 59.913468, "lon": 10.750551, "tags": {"addr:city": "Oslo", "addr:housenumber": "14", "addr:postcode": "0184", "addr:street": "Storgata"}}, {"type": "node", "id": 2785550494, "lat": 59.913944, "lon": 10.757196, "tags": {"addr:city": "Oslo", "addr:housenumber": "15", "addr:postcode": "0186", "addr:street": "Brugata"}}, {"type": "node", "id": 2785550496, "lat": 59.916502, "lon": 10.755094, "tags": {"addr:city": "Oslo", "addr:housenumber": "15", "addr:postcode": "0183", "addr:street": "Calmeyers gate"}}, {"type": "node", "id": 2785550500, "lat": 59.914729, "lon": 10.758041, "tags": {"addr:city": "Oslo", "addr:housenumber": "15", "addr:postcode": "0186", "addr:street": "Christian Krohgs gate"}}, {"type": "node", "id": 2785550514, "lat": 59.915839, "lon": 10.750247, "tags": {"addr:city": "Oslo", "addr:housenumber": "15", "addr:postcode": "0181", "addr:street": "Hammersborggata"}}, {"type": "node", "id": 2785550530, "lat": 59.915329, "lon": 10.750411, "tags": {"addr:city": "Oslo", "addr:housenumber": "15", "addr:postcode": "0181", "addr:street": "Torggata"}}, {"type": "node", "id": 2785550561, "lat": 59.916392, "lon": 10.755267, "tags": {"addr:city": "Oslo", "addr:housenumber": "15B", "addr:postcode": "0183", "addr:street": "Calmeyers gate"}}, {"type": "node", "id": 2785550602, "lat": 59.914979, "lon": 10.758841, "tags": {"addr:city": "Oslo", "addr:housenumber": "16", "addr:postcode": "0186", "addr:street": "Christian Krohgs gate"}}, {"type": "node", "id": 2785550617, "lat": 59.918357, "lon": 10.753403, "tags": {"addr:city": "Oslo", "addr:housenumber": "16", "addr:postcode": "0182", "addr:street": "Hausmanns gate"}}, {"type": "node", "id": 2785550640, "lat": 59.913442, "lon": 10.753519, "tags": {"addr:city": "Oslo", "addr:housenumber": "16", "addr:postcode": "0184", "addr:street": "Stenersgata"}}, {"type": "node", "id": 2785550757, "lat": 59.916193, "lon": 10.751616, "tags": {"addr:city": "Oslo", "addr:housenumber": "17", "addr:postcode": "0183", "addr:street": "Bernt Ankers gate"}}, {"type": "node", "id": 2785550765, "lat": 59.916288, "lon": 10.756334, "tags": {"addr:city": "Oslo", "addr:housenumber": "17", "addr:postcode": "0182", "addr:street": "Hausmanns gate"}}, {"type": "node", "id": 2785550808, "lat": 59.913723, "lon": 10.757415, "tags": {"addr:city": "Oslo", "addr:housenumber": "17A", "addr:postcode": "0186", "addr:street": "Brugata"}}, {"type": "node", "id": 2785550815, "lat": 59.914055, "lon": 10.757451, "tags": {"addr:city": "Oslo", "addr:housenumber": "17B", "addr:postcode": "0186", "addr:street": "Brugata"}}, {"type": "node", "id": 2785550829, "lat": 59.913939, "lon": 10.757409, "tags": {"addr:city": "Oslo", "addr:housenumber": "17C", "addr:postcode": "0186", "addr:street": "Brugata"}}, {"type": "node", "id": 2785550834, "lat": 59.913908, "lon": 10.757675, "tags": {"addr:city": "Oslo", "addr:housenumber": "17D", "addr:postcode": "0186", "addr:street": "Brugata"}}, {"type": "node", "id": 2785550872, "lat": 59.913461, "lon": 10.753899, "tags": {"addr:city": "Oslo", "addr:housenumber": "18", "addr:postcode": "0184", "addr:street": "Stenersgata"}}, {"type": "node", "id": 2785550879, "lat": 59.913711, "lon": 10.750981, "tags": {"addr:city": "Oslo", "addr:housenumber": "18", "addr:postcode": "0184", "addr:street": "Storgata"}}, {"type": "node", "id": 2785550887, "lat": 59.916107, "lon": 10.751479, "tags": {"addr:city": "Oslo", "addr:housenumber": "18", "addr:postcode": "0181", "addr:street": "Torggata"}}, {"type": "node", "id": 2785550895, "lat": 59.916153, "lon": 10.751059, "tags": {"addr:city": "Oslo", "addr:housenumber": "5", "addr:postcode": "0181", "addr:street": "Badstugata"}}, {"type": "node", "id": 2785550902, "lat": 59.91628, "lon": 10.751488, "tags": {"addr:city": "Oslo", "addr:housenumber": "19", "addr:postcode": "0183", "addr:street": "Bernt Ankers gate"}}, {"type": "node", "id": 2785550917, "lat": 59.9137, "lon": 10.757754, "tags": {"addr:city": "Oslo", "addr:housenumber": "19", "addr:postcode": "0186", "addr:street": "Brugata"}}, {"type": "node", "id": 2785550976, "lat": 59.913719, "lon": 10.750261, "tags": {"addr:city": "Oslo", "addr:housenumber": "19", "addr:postcode": "0184", "addr:street": "Storgata"}}, {"type": "node", "id": 2785551003, "lat": 59.916573, "lon": 10.755614, "tags": {"addr:city": "Oslo", "addr:housenumber": "19A", "addr:postcode": "0182", "addr:street": "Hausmanns gate"}}, {"type": "node", "id": 2785551040, "lat": 59.916541, "lon": 10.755486, "tags": {"addr:city": "Oslo", "addr:housenumber": "19B", "addr:postcode": "0182", "addr:street": "Hausmanns gate"}}, {"type": "node", "id": 2785551065, "lat": 59.913636, "lon": 10.752492, "tags": {"addr:city": "Oslo", "addr:housenumber": "1A", "addr:postcode": "0184", "addr:street": "Lybekkergata"}}, {"type": "node", "id": 2785551076, "lat": 59.919716, "lon": 10.751864, "tags": {"addr:city": "Oslo", "addr:housenumber": "1B", "addr:postcode": "0182", "addr:street": "Brenneriveien"}}, {"type": "node", "id": 2785551086, "lat": 59.913753, "lon": 10.752462, "tags": {"addr:city": "Oslo", "addr:housenumber": "1B", "addr:postcode": "0184", "addr:street": "Lybekkergata"}}, {"type": "node", "id": 2785551094, "lat": 59.913661, "lon": 10.752636, "tags": {"addr:city": "Oslo", "addr:housenumber": "1C", "addr:postcode": "0184", "addr:street": "Lybekkergata"}}, {"type": "node", "id": 2785551103, "lat": 59.91431, "lon": 10.75784, "tags": {"addr:city": "Oslo", "addr:housenumber": "2", "addr:postcode": "0186", "addr:street": "Christian Krohgs gate"}}, {"type": "node", "id": 2785551127, "lat": 59.914384, "lon": 10.752456, "tags": {"addr:city": "Oslo", "addr:housenumber": "2", "addr:postcode": "0181", "addr:street": "Hammersborggata"}}, {"type": "node", "id": 2785551138, "lat": 59.918232, "lon": 10.751285, "tags": {"addr:city": "Oslo", "addr:housenumber": "2", "addr:postcode": "0183", "addr:street": "Jess Carlsens gate"}}, {"type": "node", "id": 2785551152, "lat": 59.913812, "lon": 10.752868, "tags": {"addr:city": "Oslo", "addr:housenumber": "2", "addr:postcode": "0184", "addr:street": "Lybekkergata"}}, {"type": "node", "id": 2785551233, "lat": 59.912599, "lon": 10.754798, "tags": {"addr:city": "Oslo", "addr:housenumber": "2", "addr:postcode": "0185", "addr:street": "Sonja Henies plass"}}, {"type": "node", "id": 2785551247, "lat": 59.912962, "lon": 10.751364, "tags": {"addr:city": "Oslo", "addr:housenumber": "2A", "addr:postcode": "0184", "addr:street": "Stenersgata"}}, {"type": "node", "id": 2785551329, "lat": 59.914475, "lon": 10.751213, "tags": {"addr:city": "Oslo", "addr:housenumber": "2", "addr:postcode": "0181", "addr:street": "Youngs gate"}}, {"type": "node", "id": 2785551387, "lat": 59.913551, "lon": 10.754482, "tags": {"addr:city": "Oslo", "addr:housenumber": "20", "addr:postcode": "0184", "addr:street": "Stenersgata"}}, {"type": "node", "id": 2785551393, "lat": 59.913769, "lon": 10.751247, "tags": {"addr:city": "Oslo", "addr:housenumber": "20", "addr:postcode": "0184", "addr:street": "Storgata"}}, {"type": "node", "id": 2785551397, "lat": 59.916298, "lon": 10.751809, "tags": {"addr:city": "Oslo", "addr:housenumber": "20", "addr:postcode": "0183", "addr:street": "Torggata"}}, {"type": "node", "id": 2785551459, "lat": 59.916923, "lon": 10.755205, "tags": {"addr:city": "Oslo", "addr:housenumber": "21", "addr:postcode": "0182", "addr:street": "Hausmanns gate"}}, {"type": "node", "id": 2785551518, "lat": 59.914318, "lon": 10.750489, "tags": {"addr:city": "Oslo", "addr:housenumber": "21", "addr:postcode": "0184", "addr:street": "Storgata"}}, {"type": "node", "id": 2785551541, "lat": 59.91643, "lon": 10.752425, "tags": {"addr:city": "Oslo", "addr:housenumber": "21A", "addr:postcode": "0183", "addr:street": "Torggata"}}, {"type": "node", "id": 2785551558, "lat": 59.916428, "lon": 10.752568, "tags": {"addr:city": "Oslo", "addr:housenumber": "21B", "addr:postcode": "0183", "addr:street": "Torggata"}}, {"type": "node", "id": 2785551609, "lat": 59.918607, "lon": 10.752826, "tags": {"addr:city": "Oslo", "addr:housenumber": "22", "addr:postcode": "0182", "addr:street": "Hausmanns gate"}}, {"type": "node", "id": 2785551630, "lat": 59.912945, "lon": 10.759878, "tags": {"addr:city": "Oslo", "addr:housenumber": "22", "addr:postcode": "0188", "addr:street": "Smalgangen"}}, {"type": "node", "id": 2785551641, "lat": 59.91358, "lon": 10.754671, "tags": {"addr:city": "Oslo", "addr:housenumber": "22", "addr:postcode": "0184", "addr:street": "Stenersgata"}}, {"type": "node", "id": 2785551654, "lat": 59.913837, "lon": 10.751555, "tags": {"addr:city": "Oslo", "addr:housenumber": "22", "addr:postcode": "0184", "addr:street": "Storgata"}}, {"type": "node", "id": 2785551663, "lat": 59.916435, "lon": 10.752031, "tags": {"addr:city": "Oslo", "addr:housenumber": "22", "addr:postcode": "0183", "addr:street": "Torggata"}}, {"type": "node", "id": 2785551713, "lat": 59.917181, "lon": 10.754818, "tags": {"addr:city": "Oslo", "addr:housenumber": "23", "addr:postcode": "0182", "addr:street": "Hausmanns gate"}}, {"type": "node", "id": 2785551770, "lat": 59.913892, "lon": 10.75077, "tags": {"addr:city": "Oslo", "addr:housenumber": "23", "addr:postcode": "0184", "addr:street": "Storgata"}}, {"type": "node", "id": 2785551783, "lat": 59.916623, "lon": 10.752775, "tags": {"addr:city": "Oslo", "addr:housenumber": "23", "addr:postcode": "0183", "addr:street": "Torggata"}}, {"type": "node", "id": 2785551827, "lat": 59.91868, "lon": 10.752704, "tags": {"addr:city": "Oslo", "addr:housenumber": "24", "addr:postcode": "0182", "addr:street": "Hausmanns gate"}}, {"type": "node", "id": 2785551835, "lat": 59.912978, "lon": 10.759415, "tags": {"addr:city": "Oslo", "addr:housenumber": "24", "addr:postcode": "0188", "addr:street": "Smalgangen"}}, {"type": "node", "id": 2785551843, "lat": 59.913622, "lon": 10.754906, "tags": {"addr:city": "Oslo", "addr:housenumber": "24", "addr:postcode": "0184", "addr:street": "Stenersgata"}}, {"type": "node", "id": 2785551850, "lat": 59.913897, "lon": 10.751737, "tags": {"addr:city": "Oslo", "addr:housenumber": "24", "addr:postcode": "0184", "addr:street": "Storgata"}}, {"type": "node", "id": 2785551855, "lat": 59.916567, "lon": 10.752253, "tags": {"addr:city": "Oslo", "addr:housenumber": "24", "addr:postcode": "0183", "addr:street": "Torggata"}}, {"type": "node", "id": 2785551865, "lat": 59.917356, "lon": 10.754572, "tags": {"addr:city": "Oslo", "addr:housenumber": "25", "addr:postcode": "0182", "addr:street": "Hausmanns gate"}}, {"type": "node", "id": 2785551886, "lat": 59.914012, "lon": 10.751188, "tags": {"addr:city": "Oslo", "addr:housenumber": "25", "addr:postcode": "0184", "addr:street": "Storgata"}}, {"type": "node", "id": 2785551890, "lat": 59.916728, "lon": 10.752977, "tags": {"addr:city": "Oslo", "addr:housenumber": "25", "addr:postcode": "0183", "addr:street": "Torggata"}}, {"type": "node", "id": 2785551898, "lat": 59.912808, "lon": 10.759316, "tags": {"addr:city": "Oslo", "addr:housenumber": "26", "addr:postcode": "0188", "addr:street": "Smalgangen"}}, {"type": "node", "id": 2785551903, "lat": 59.913948, "lon": 10.751954, "tags": {"addr:city": "Oslo", "addr:housenumber": "26", "addr:postcode": "0184", "addr:street": "Storgata"}}, {"type": "node", "id": 2785551907, "lat": 59.916672, "lon": 10.752455, "tags": {"addr:city": "Oslo", "addr:housenumber": "26", "addr:postcode": "0183", "addr:street": "Torggata"}}, {"type": "node", "id": 2785551943, "lat": 59.917476, "lon": 10.754362, "tags": {"addr:city": "Oslo", "addr:housenumber": "27", "addr:postcode": "0182", "addr:street": "Hausmanns gate"}}, {"type": "node", "id": 2785551974, "lat": 59.914098, "lon": 10.751515, "tags": {"addr:city": "Oslo", "addr:housenumber": "27", "addr:postcode": "0184", "addr:street": "Storgata"}}, {"type": "node", "id": 2785551985, "lat": 59.916912, "lon": 10.753309, "tags": {"addr:city": "Oslo", "addr:housenumber": "27", "addr:postcode": "0183", "addr:street": "Torggata"}}, {"type": "node", "id": 2785552029, "lat": 59.918953, "lon": 10.752327, "tags": {"addr:city": "Oslo", "addr:housenumber": "28", "addr:postcode": "0182", "addr:street": "Hausmanns gate"}}, {"type": "node", "id": 2785552038, "lat": 59.912578, "lon": 10.759715, "tags": {"addr:city": "Oslo", "addr:housenumber": "28", "addr:postcode": "0188", "addr:street": "Smalgangen"}}, {"type": "node", "id": 2785552049, "lat": 59.916745, "lon": 10.752634, "tags": {"addr:city": "Oslo", "addr:housenumber": "28", "addr:postcode": "0183", "addr:street": "Torggata"}}, {"type": "node", "id": 2785552059, "lat": 59.915497, "lon": 10.759781, "tags": {"addr:city": "Oslo", "addr:housenumber": "28A", "addr:postcode": "0186", "addr:street": "Christian Krohgs gate"}}, {"type": "node", "id": 2785552070, "lat": 59.913953, "lon": 10.75224, "tags": {"addr:city": "Oslo", "addr:housenumber": "28A", "addr:postcode": "0184", "addr:street": "Storgata"}}, {"type": "node", "id": 2785552081, "lat": 59.915517, "lon": 10.759603, "tags": {"addr:city": "Oslo", "addr:housenumber": "28B", "addr:postcode": "0186", "addr:street": "Christian Krohgs gate"}}, {"type": "node", "id": 2785552089, "lat": 59.913937, "lon": 10.75215, "tags": {"addr:city": "Oslo", "addr:housenumber": "28B", "addr:postcode": "0184", "addr:street": "Storgata"}}, {"type": "node", "id": 2785552098, "lat": 59.915555, "lon": 10.759426, "tags": {"addr:city": "Oslo", "addr:housenumber": "28C", "addr:postcode": "0186", "addr:street": "Christian Krohgs gate"}}, {"type": "node", "id": 2785552119, "lat": 59.917009, "lon": 10.753475, "tags": {"addr:city": "Oslo", "addr:housenumber": "29", "addr:postcode": "0183", "addr:street": "Torggata"}}, {"type": "node", "id": 2785552139, "lat": 59.917632, "lon": 10.753921, "tags": {"addr:city": "Oslo", "addr:housenumber": "29A", "addr:postcode": "0182", "addr:street": "Hausmanns gate"}}, {"type": "node", "id": 2785552149, "lat": 59.917673, "lon": 10.754018, "tags": {"addr:city": "Oslo", "addr:housenumber": "29B", "addr:postcode": "0182", "addr:street": "Hausmanns gate"}}, {"type": "node", "id": 2785552159, "lat": 59.915038, "lon": 10.753782, "tags": {"addr:city": "Oslo", "addr:housenumber": "2A", "addr:postcode": "0183", "addr:street": "Bernt Ankers gate"}}, {"type": "node", "id": 2785552171, "lat": 59.915162, "lon": 10.753896, "tags": {"addr:city": "Oslo", "addr:housenumber": "2A", "addr:postcode": "0183", "addr:street": "Ebbells gate"}}, {"type": "node", "id": 2785552181, "lat": 59.913519, "lon": 10.758585, "tags": {"addr:city": "Oslo", "addr:housenumber": "2A", "addr:postcode": "0188", "addr:street": "Gr\u00f8nland"}}, {"type": "node", "id": 2785552247, "lat": 59.915093, "lon": 10.753696, "tags": {"addr:city": "Oslo", "addr:housenumber": "2B", "addr:postcode": "0183", "addr:street": "Bernt Ankers gate"}}, {"type": "node", "id": 2785552253, "lat": 59.915098, "lon": 10.753982, "tags": {"addr:city": "Oslo", "addr:housenumber": "2B", "addr:postcode": "0183", "addr:street": "Ebbells gate"}}, {"type": "node", "id": 2785552257, "lat": 59.91346, "lon": 10.758922, "tags": {"addr:city": "Oslo", "addr:housenumber": "2B", "addr:postcode": "0188", "addr:street": "Gr\u00f8nland"}}, {"type": "node", "id": 2785552258, "lat": 59.916299, "lon": 10.750051, "tags": {"addr:city": "Oslo", "addr:housenumber": "2B", "addr:postcode": "0183", "addr:street": "Mariboes gate"}}, {"type": "node", "id": 2785552278, "lat": 59.913431, "lon": 10.759099, "tags": {"addr:city": "Oslo", "addr:housenumber": "2C", "addr:postcode": "0188", "addr:street": "Gr\u00f8nland"}}, {"type": "node", "id": 2785552319, "lat": 59.913121, "lon": 10.759422, "tags": {"addr:city": "Oslo", "addr:housenumber": "3", "addr:postcode": "0188", "addr:street": "Gr\u00f8nland"}}, {"type": "node", "id": 2785552326, "lat": 59.913789, "lon": 10.759869, "tags": {"addr:city": "Oslo", "addr:housenumber": "3", "addr:postcode": "0187", "addr:street": "Lakkegata"}}, {"type": "node", "id": 2785552357, "lat": 59.912794, "lon": 10.759047, "tags": {"addr:city": "Oslo", "addr:housenumber": "3", "addr:postcode": "0188", "addr:street": "Olafiagangen"}}, {"type": "node", "id": 2785552364, "lat": 59.912379, "lon": 10.759186, "tags": {"addr:city": "Oslo", "addr:housenumber": "3", "addr:postcode": "0188", "addr:street": "Smalgangen"}}, {"type": "node", "id": 2785552371, "lat": 59.912661, "lon": 10.756214, "tags": {"addr:city": "Oslo", "addr:housenumber": "3", "addr:postcode": "0185", "addr:street": "Sonja Henies plass"}}, {"type": "node", "id": 2785552405, "lat": 59.919001, "lon": 10.752918, "tags": {"addr:city": "Oslo", "addr:housenumber": "3", "addr:postcode": "0182", "addr:street": "Vestre Elvebakke"}}, {"type": "node", "id": 2785552412, "lat": 59.914447, "lon": 10.751662, "tags": {"addr:city": "Oslo", "addr:housenumber": "3", "addr:postcode": "0181", "addr:street": "Youngs gate"}}, {"type": "node", "id": 2785552425, "lat": 59.91883, "lon": 10.754286, "tags": {"addr:city": "Oslo", "addr:housenumber": "3", "addr:postcode": "0182", "addr:street": "\u00d8stre Elvebakke"}}, {"type": "node", "id": 2785552465, "lat": 59.914305, "lon": 10.752207, "tags": {"addr:city": "Oslo", "addr:housenumber": "31", "addr:postcode": "0184", "addr:street": "Storgata"}}, {"type": "node", "id": 2785552469, "lat": 59.917105, "lon": 10.753676, "tags": {"addr:city": "Oslo", "addr:housenumber": "31", "addr:postcode": "0183", "addr:street": "Torggata"}}, {"type": "node", "id": 2785552492, "lat": 59.917787, "lon": 10.753884, "tags": {"addr:city": "Oslo", "addr:housenumber": "31A", "addr:postcode": "0182", "addr:street": "Hausmanns gate"}}, {"type": "node", "id": 2785552499, "lat": 59.917824, "lon": 10.753815, "tags": {"addr:city": "Oslo", "addr:housenumber": "31B", "addr:postcode": "0182", "addr:street": "Hausmanns gate"}}, {"type": "node", "id": 2785552506, "lat": 59.917837, "lon": 10.753787, "tags": {"addr:city": "Oslo", "addr:housenumber": "31C", "addr:postcode": "0182", "addr:street": "Hausmanns gate"}}, {"type": "node", "id": 2785552531, "lat": 59.914163, "lon": 10.752915, "tags": {"addr:city": "Oslo", "addr:housenumber": "32", "addr:postcode": "0184", "addr:street": "Storgata"}}, {"type": "node", "id": 2785552539, "lat": 59.917189, "lon": 10.753413, "tags": {"addr:city": "Oslo", "addr:housenumber": "32", "addr:postcode": "0183", "addr:street": "Torggata"}}, {"type": "node", "id": 2785552548, "lat": 59.915944, "lon": 10.759912, "tags": {"addr:city": "Oslo", "addr:housenumber": "32A", "addr:postcode": "0186", "addr:street": "Christian Krohgs gate"}}, {"type": "node", "id": 2785552581, "lat": 59.917967, "lon": 10.753602, "tags": {"addr:city": "Oslo", "addr:housenumber": "33", "addr:postcode": "0182", "addr:street": "Hausmanns gate"}}, {"type": "node", "id": 2785552606, "lat": 59.914617, "lon": 10.753027, "tags": {"addr:city": "Oslo", "addr:housenumber": "33", "addr:postcode": "0184", "addr:street": "Storgata"}}, {"type": "node", "id": 2785552613, "lat": 59.917201, "lon": 10.753843, "tags": {"addr:city": "Oslo", "addr:housenumber": "33", "addr:postcode": "0183", "addr:street": "Torggata"}}, {"type": "node", "id": 2785552659, "lat": 59.917277, "lon": 10.753578, "tags": {"addr:city": "Oslo", "addr:housenumber": "34", "addr:postcode": "0183", "addr:street": "Torggata"}}, {"type": "node", "id": 2785552673, "lat": 59.91471, "lon": 10.754123, "tags": {"addr:city": "Oslo", "addr:housenumber": "34B", "addr:postcode": "0182", "addr:street": "Storgata"}}, {"type": "node", "id": 2785552680, "lat": 59.914805, "lon": 10.754396, "tags": {"addr:city": "Oslo", "addr:housenumber": "34C", "addr:postcode": "0182", "addr:street": "Storgata"}}, {"type": "node", "id": 2785552687, "lat": 59.915802, "lon": 10.759185, "tags": {"addr:city": "Oslo", "addr:housenumber": "35", "addr:postcode": "0186", "addr:street": "Christian Krohgs gate"}}, {"type": "node", "id": 2785552708, "lat": 59.917298, "lon": 10.754027, "tags": {"addr:city": "Oslo", "addr:housenumber": "35", "addr:postcode": "0183", "addr:street": "Torggata"}}, {"type": "node", "id": 2785552764, "lat": 59.91497, "lon": 10.754816, "tags": {"addr:city": "Oslo", "addr:housenumber": "36A", "addr:postcode": "0182", "addr:street": "Storgata"}}, {"type": "node", "id": 2785552775, "lat": 59.917391, "lon": 10.753781, "tags": {"addr:city": "Oslo", "addr:housenumber": "36A", "addr:postcode": "0183", "addr:street": "Torggata"}}, {"type": "node", "id": 2785552814, "lat": 59.915081, "lon": 10.755265, "tags": {"addr:city": "Oslo", "addr:housenumber": "36B", "addr:postcode": "0182", "addr:street": "Storgata"}}, {"type": "node", "id": 2785552821, "lat": 59.917529, "lon": 10.753538, "tags": {"addr:city": "Oslo", "addr:housenumber": "36B", "addr:postcode": "0183", "addr:street": "Torggata"}}, {"type": "node", "id": 2785552831, "lat": 59.914965, "lon": 10.755406, "tags": {"addr:city": "Oslo", "addr:housenumber": "36C", "addr:postcode": "0182", "addr:street": "Storgata"}}, {"type": "node", "id": 2785552837, "lat": 59.917596, "lon": 10.753427, "tags": {"addr:city": "Oslo", "addr:housenumber": "36C", "addr:postcode": "0183", "addr:street": "Torggata"}}, {"type": "node", "id": 2785552874, "lat": 59.916109, "lon": 10.759455, "tags": {"addr:city": "Oslo", "addr:housenumber": "37", "addr:postcode": "0186", "addr:street": "Christian Krohgs gate"}}, {"type": "node", "id": 2785552881, "lat": 59.916008, "lon": 10.751048, "tags": {"addr:city": "Oslo", "addr:housenumber": "2", "addr:postcode": "0183", "addr:street": "Badstugata"}}, {"type": "node", "id": 2785552896, "lat": 59.914962, "lon": 10.754064, "tags": {"addr:city": "Oslo", "addr:housenumber": "37A", "addr:postcode": "0182", "addr:street": "Storgata"}}, {"type": "node", "id": 2785552901, "lat": 59.914965, "lon": 10.75385, "tags": {"addr:city": "Oslo", "addr:housenumber": "37B", "addr:postcode": "0182", "addr:street": "Storgata"}}, {"type": "node", "id": 2785552905, "lat": 59.915043, "lon": 10.754086, "tags": {"addr:city": "Oslo", "addr:housenumber": "37C", "addr:postcode": "0182", "addr:street": "Storgata"}}, {"type": "node", "id": 2785552932, "lat": 59.916174, "lon": 10.757491, "tags": {"addr:city": "Oslo", "addr:housenumber": "38", "addr:postcode": "0182", "addr:street": "Storgata"}}, {"type": "node", "id": 2785552936, "lat": 59.917468, "lon": 10.753942, "tags": {"addr:city": "Oslo", "addr:housenumber": "38", "addr:postcode": "0182", "addr:street": "Torggata"}}, {"type": "node", "id": 2785552940, "lat": 59.916086, "lon": 10.750852, "tags": {"addr:city": "Oslo", "addr:housenumber": "4", "addr:postcode": "0183", "addr:street": "Badstugata"}}, {"type": "node", "id": 2785552948, "lat": 59.915124, "lon": 10.754681, "tags": {"addr:city": "Oslo", "addr:housenumber": "39", "addr:postcode": "0182", "addr:street": "Storgata"}}, {"type": "node", "id": 2785552956, "lat": 59.916262, "lon": 10.759469, "tags": {"addr:city": "Oslo", "addr:housenumber": "39A", "addr:postcode": "0186", "addr:street": "Christian Krohgs gate"}}, {"type": "node", "id": 2785552960, "lat": 59.916251, "lon": 10.759481, "tags": {"addr:city": "Oslo", "addr:housenumber": "39B", "addr:postcode": "0186", "addr:street": "Christian Krohgs gate"}}, {"type": "node", "id": 2785552964, "lat": 59.916197, "lon": 10.759431, "tags": {"addr:city": "Oslo", "addr:housenumber": "39C", "addr:postcode": "0186", "addr:street": "Christian Krohgs gate"}}, {"type": "node", "id": 2785552968, "lat": 59.916132, "lon": 10.759372, "tags": {"addr:city": "Oslo", "addr:housenumber": "39D", "addr:postcode": "0186", "addr:street": "Christian Krohgs gate"}}, {"type": "node", "id": 2785552972, "lat": 59.916075, "lon": 10.759328, "tags": {"addr:city": "Oslo", "addr:housenumber": "39E", "addr:postcode": "0186", "addr:street": "Christian Krohgs gate"}}, {"type": "node", "id": 2785552976, "lat": 59.916114, "lon": 10.759112, "tags": {"addr:city": "Oslo", "addr:housenumber": "39F", "addr:postcode": "0186", "addr:street": "Christian Krohgs gate"}}, {"type": "node", "id": 2785552980, "lat": 59.916162, "lon": 10.759056, "tags": {"addr:city": "Oslo", "addr:housenumber": "39G", "addr:postcode": "0186", "addr:street": "Christian Krohgs gate"}}, {"type": "node", "id": 2785552984, "lat": 59.916149, "lon": 10.758978, "tags": {"addr:city": "Oslo", "addr:housenumber": "39H", "addr:postcode": "0186", "addr:street": "Christian Krohgs gate"}}, {"type": "node", "id": 2785552992, "lat": 59.915428, "lon": 10.75418, "tags": {"addr:city": "Oslo", "addr:housenumber": "3A", "addr:postcode": "0183", "addr:street": "Ebbells gate"}}, {"type": "node", "id": 2785553010, "lat": 59.914247, "lon": 10.754474, "tags": {"addr:city": "Oslo", "addr:housenumber": "3B", "addr:postcode": "0186", "addr:street": "Brugata"}}, {"type": "node", "id": 2785553014, "lat": 59.915466, "lon": 10.754153, "tags": {"addr:city": "Oslo", "addr:housenumber": "3B", "addr:postcode": "0183", "addr:street": "Ebbells gate"}}, {"type": "node", "id": 2785553026, "lat": 59.914292, "lon": 10.754608, "tags": {"addr:city": "Oslo", "addr:housenumber": "3C", "addr:postcode": "0186", "addr:street": "Brugata"}}, {"type": "node", "id": 2785553030, "lat": 59.915511, "lon": 10.754385, "tags": {"addr:city": "Oslo", "addr:housenumber": "3C", "addr:postcode": "0183", "addr:street": "Ebbells gate"}}, {"type": "node", "id": 2785553046, "lat": 59.915795, "lon": 10.752586, "tags": {"addr:city": "Oslo", "addr:housenumber": "4", "addr:postcode": "0183", "addr:street": "Calmeyers gate"}}, {"type": "node", "id": 2785553058, "lat": 59.918379, "lon": 10.751096, "tags": {"addr:city": "Oslo", "addr:housenumber": "4", "addr:postcode": "0183", "addr:street": "Jess Carlsens gate"}}, {"type": "node", "id": 2785553088, "lat": 59.912004, "lon": 10.755625, "tags": {"addr:city": "Oslo", "addr:housenumber": "4", "addr:postcode": "0185", "addr:street": "Schweigaards gate"}}, {"type": "node", "id": 2785553089, "lat": 59.91254, "lon": 10.759248, "tags": {"addr:city": "Oslo", "addr:housenumber": "4", "addr:postcode": "0188", "addr:street": "Smalgangen"}}, {"type": "node", "id": 2785553090, "lat": 59.912796, "lon": 10.755542, "tags": {"addr:city": "Oslo", "addr:housenumber": "4", "addr:postcode": "0185", "addr:street": "Sonja Henies plass"}}, {"type": "node", "id": 2785553092, "lat": 59.913081, "lon": 10.751822, "tags": {"addr:city": "Oslo", "addr:housenumber": "4", "addr:postcode": "0184", "addr:street": "Stenersgata"}}, {"type": "node", "id": 2785553111, "lat": 59.914601, "lon": 10.750953, "tags": {"addr:city": "Oslo", "addr:housenumber": "4", "addr:postcode": "0181", "addr:street": "Youngs gate"}}, {"type": "node", "id": 2785553123, "lat": 59.919304, "lon": 10.751753, "tags": {"addr:city": "Oslo", "addr:housenumber": "40", "addr:postcode": "0182", "addr:street": "Hausmanns gate"}}, {"type": "node", "id": 2785553145, "lat": 59.91759, "lon": 10.754171, "tags": {"addr:city": "Oslo", "addr:housenumber": "40", "addr:postcode": "0182", "addr:street": "Torggata"}}, {"type": "node", "id": 2785553149, "lat": 59.916306, "lon": 10.759199, "tags": {"addr:city": "Oslo", "addr:housenumber": "41", "addr:postcode": "0186", "addr:street": "Christian Krohgs gate"}}, {"type": "node", "id": 2785553158, "lat": 59.915211, "lon": 10.754918, "tags": {"addr:city": "Oslo", "addr:housenumber": "41", "addr:postcode": "0182", "addr:street": "Storgata"}}, {"type": "node", "id": 2785553166, "lat": 59.919413, "lon": 10.751616, "tags": {"addr:city": "Oslo", "addr:housenumber": "42A", "addr:postcode": "0182", "addr:street": "Hausmanns gate"}}, {"type": "node", "id": 2785553181, "lat": 59.915322, "lon": 10.75829, "tags": {"addr:city": "Oslo", "addr:housenumber": "3", "addr:postcode": "0186", "addr:street": "Hausmanns gate"}}, {"type": "node", "id": 2785553196, "lat": 59.915315, "lon": 10.75521, "tags": {"addr:city": "Oslo", "addr:housenumber": "43", "addr:postcode": "0182", "addr:street": "Storgata"}}, {"type": "node", "id": 2785553211, "lat": 59.916326, "lon": 10.75952, "tags": {"addr:city": "Oslo", "addr:housenumber": "43A", "addr:postcode": "0186", "addr:street": "Christian Krohgs gate"}}, {"type": "node", "id": 2785553218, "lat": 59.916443, "lon": 10.759544, "tags": {"addr:city": "Oslo", "addr:housenumber": "43B", "addr:postcode": "0186", "addr:street": "Christian Krohgs gate"}}, {"type": "node", "id": 2785553227, "lat": 59.916436, "lon": 10.759383, "tags": {"addr:city": "Oslo", "addr:housenumber": "43C", "addr:postcode": "0186", "addr:street": "Christian Krohgs gate"}}, {"type": "node", "id": 2785553278, "lat": 59.918701, "lon": 10.752247, "tags": {"addr:city": "Oslo", "addr:housenumber": "45", "addr:postcode": "0182", "addr:street": "Hausmanns gate"}}, {"type": "node", "id": 2785553296, "lat": 59.915596, "lon": 10.755672, "tags": {"addr:city": "Oslo", "addr:housenumber": "45A", "addr:postcode": "0182", "addr:street": "Storgata"}}, {"type": "node", "id": 2785553304, "lat": 59.915652, "lon": 10.755514, "tags": {"addr:city": "Oslo", "addr:housenumber": "45B", "addr:postcode": "0182", "addr:street": "Storgata"}}, {"type": "node", "id": 2785553325, "lat": 59.916485, "lon": 10.759743, "tags": {"addr:city": "Oslo", "addr:housenumber": "47", "addr:postcode": "0186", "addr:street": "Christian Krohgs gate"}}, {"type": "node", "id": 2785553330, "lat": 59.918787, "lon": 10.752134, "tags": {"addr:city": "Oslo", "addr:housenumber": "47", "addr:postcode": "0182", "addr:street": "Hausmanns gate"}}, {"type": "node", "id": 2785553348, "lat": 59.915592, "lon": 10.755938, "tags": {"addr:city": "Oslo", "addr:housenumber": "47", "addr:postcode": "0182", "addr:street": "Storgata"}}, {"type": "node", "id": 2785553389, "lat": 59.918832, "lon": 10.752038, "tags": {"addr:city": "Oslo", "addr:housenumber": "49", "addr:postcode": "0182", "addr:street": "Hausmanns gate"}}, {"type": "node", "id": 2785553397, "lat": 59.915697, "lon": 10.755793, "tags": {"addr:city": "Oslo", "addr:housenumber": "49A", "addr:postcode": "0182", "addr:street": "Storgata"}}, {"type": "node", "id": 2785553401, "lat": 59.915823, "lon": 10.755773, "tags": {"addr:city": "Oslo", "addr:housenumber": "49B", "addr:postcode": "0182", "addr:street": "Storgata"}}, {"type": "node", "id": 2785553405, "lat": 59.915915, "lon": 10.755869, "tags": {"addr:city": "Oslo", "addr:housenumber": "49C", "addr:postcode": "0182", "addr:street": "Storgata"}}, {"type": "node", "id": 2785553409, "lat": 59.915896, "lon": 10.755892, "tags": {"addr:city": "Oslo", "addr:housenumber": "49D", "addr:postcode": "0182", "addr:street": "Storgata"}}, {"type": "node", "id": 2785553413, "lat": 59.915817, "lon": 10.756063, "tags": {"addr:city": "Oslo", "addr:housenumber": "49E", "addr:postcode": "0182", "addr:street": "Storgata"}}, {"type": "node", "id": 2785553417, "lat": 59.915732, "lon": 10.756262, "tags": {"addr:city": "Oslo", "addr:housenumber": "49F", "addr:postcode": "0182", "addr:street": "Storgata"}}, {"type": "node", "id": 2785553421, "lat": 59.915175, "lon": 10.75361, "tags": {"addr:city": "Oslo", "addr:housenumber": "4A", "addr:postcode": "0183", "addr:street": "Bernt Ankers gate"}}, {"type": "node", "id": 2785553425, "lat": 59.91524, "lon": 10.753802, "tags": {"addr:city": "Oslo", "addr:housenumber": "4A", "addr:postcode": "0183", "addr:street": "Ebbells gate"}}, {"type": "node", "id": 2785553437, "lat": 59.915286, "lon": 10.753377, "tags": {"addr:city": "Oslo", "addr:housenumber": "4B", "addr:postcode": "0183", "addr:street": "Bernt Ankers gate"}}, {"type": "node", "id": 2785553441, "lat": 59.915373, "lon": 10.753753, "tags": {"addr:city": "Oslo", "addr:housenumber": "4B", "addr:postcode": "0183", "addr:street": "Ebbells gate"}}, {"type": "node", "id": 2785553459, "lat": 59.915378, "lon": 10.75333, "tags": {"addr:city": "Oslo", "addr:housenumber": "4C", "addr:postcode": "0183", "addr:street": "Bernt Ankers gate"}}, {"type": "node", "id": 2785553463, "lat": 59.915454, "lon": 10.753575, "tags": {"addr:city": "Oslo", "addr:housenumber": "4C", "addr:postcode": "0183", "addr:street": "Ebbells gate"}}, {"type": "node", "id": 2785553467, "lat": 59.915102, "lon": 10.753059, "tags": {"addr:city": "Oslo", "addr:housenumber": "5", "addr:postcode": "0183", "addr:street": "Bernt Ankers gate"}}, {"type": "node", "id": 2785553475, "lat": 59.919804, "lon": 10.752005, "tags": {"addr:city": "Oslo", "addr:housenumber": "5", "addr:postcode": "0182", "addr:street": "Brenneriveien"}}, {"type": "node", "id": 2785553479, "lat": 59.914063, "lon": 10.755296, "tags": {"addr:city": "Oslo", "addr:housenumber": "5", "addr:postcode": "0186", "addr:street": "Brugata"}}, {"type": "node", "id": 2785553483, "lat": 59.913111, "lon": 10.759547, "tags": {"addr:city": "Oslo", "addr:housenumber": "5", "addr:postcode": "0188", "addr:street": "Gr\u00f8nland"}}, {"type": "node", "id": 2785553487, "lat": 59.913015, "lon": 10.753264, "tags": {"addr:city": "Oslo", "addr:housenumber": "5", "addr:postcode": "0184", "addr:street": "Lybekkergata"}}, {"type": "node", "id": 2785553500, "lat": 59.912874, "lon": 10.759105, "tags": {"addr:city": "Oslo", "addr:housenumber": "5", "addr:postcode": "0188", "addr:street": "Olafiagangen"}}, {"type": "node", "id": 2785553504, "lat": 59.912339, "lon": 10.759452, "tags": {"addr:city": "Oslo", "addr:housenumber": "5", "addr:postcode": "0188", "addr:street": "Smalgangen"}}, {"type": "node", "id": 2785553516, "lat": 59.914544, "lon": 10.751538, "tags": {"addr:city": "Oslo", "addr:housenumber": "5", "addr:postcode": "0181", "addr:street": "Youngs gate"}}, {"type": "node", "id": 2785553523, "lat": 59.919026, "lon": 10.754422, "tags": {"addr:city": "Oslo", "addr:housenumber": "5", "addr:postcode": "0182", "addr:street": "\u00d8stre Elvebakke"}}, {"type": "node", "id": 2785553547, "lat": 59.918991, "lon": 10.751812, "tags": {"addr:city": "Oslo", "addr:housenumber": "51", "addr:postcode": "0182", "addr:street": "Hausmanns gate"}}, {"type": "node", "id": 2785553551, "lat": 59.915968, "lon": 10.756568, "tags": {"addr:city": "Oslo", "addr:housenumber": "51", "addr:postcode": "0182", "addr:street": "Storgata"}}, {"type": "node", "id": 2785553555, "lat": 59.917875, "lon": 10.755882, "tags": {"addr:city": "Oslo", "addr:housenumber": "51", "addr:postcode": "0182", "addr:street": "Torggata"}}, {"type": "node", "id": 2785553567, "lat": 59.917938, "lon": 10.755831, "tags": {"addr:city": "Oslo", "addr:housenumber": "53", "addr:postcode": "0182", "addr:street": "Torggata"}}, {"type": "node", "id": 2785553575, "lat": 59.916514, "lon": 10.756919, "tags": {"addr:city": "Oslo", "addr:housenumber": "53B", "addr:postcode": "0182", "addr:street": "Storgata"}}, {"type": "node", "id": 2785553587, "lat": 59.916547, "lon": 10.757099, "tags": {"addr:city": "Oslo", "addr:housenumber": "53C", "addr:postcode": "0182", "addr:street": "Storgata"}}, {"type": "node", "id": 2785553591, "lat": 59.916635, "lon": 10.757229, "tags": {"addr:city": "Oslo", "addr:housenumber": "53D", "addr:postcode": "0182", "addr:street": "Storgata"}}, {"type": "node", "id": 2785553595, "lat": 59.916662, "lon": 10.757266, "tags": {"addr:city": "Oslo", "addr:housenumber": "53E", "addr:postcode": "0182", "addr:street": "Storgata"}}, {"type": "node", "id": 2785553599, "lat": 59.916777, "lon": 10.757416, "tags": {"addr:city": "Oslo", "addr:housenumber": "53F", "addr:postcode": "0182", "addr:street": "Storgata"}}, {"type": "node", "id": 2785553603, "lat": 59.916803, "lon": 10.757435, "tags": {"addr:city": "Oslo", "addr:housenumber": "53G", "addr:postcode": "0182", "addr:street": "Storgata"}}, {"type": "node", "id": 2785553607, "lat": 59.917051, "lon": 10.757752, "tags": {"addr:city": "Oslo", "addr:housenumber": "53H", "addr:postcode": "0182", "addr:street": "Storgata"}}, {"type": "node", "id": 2785553622, "lat": 59.917646, "lon": 10.758188, "tags": {"addr:city": "Oslo", "addr:housenumber": "55", "addr:postcode": "0182", "addr:street": "Storgata"}}, {"type": "node", "id": 2785553638, "lat": 59.917355, "lon": 10.757822, "tags": {"addr:city": "Oslo", "addr:housenumber": "57", "addr:postcode": "0182", "addr:street": "Storgata"}}, {"type": "node", "id": 2785553669, "lat": 59.917001, "lon": 10.757427, "tags": {"addr:city": "Oslo", "addr:housenumber": "59", "addr:postcode": "0182", "addr:street": "Storgata"}}, {"type": "node", "id": 2785553676, "lat": 59.915582, "lon": 10.754025, "tags": {"addr:city": "Oslo", "addr:housenumber": "5A", "addr:postcode": "0183", "addr:street": "Ebbells gate"}}, {"type": "node", "id": 2785553691, "lat": 59.915555, "lon": 10.75406, "tags": {"addr:city": "Oslo", "addr:housenumber": "5B", "addr:postcode": "0183", "addr:street": "Ebbells gate"}}, {"type": "node", "id": 2785553705, "lat": 59.915688, "lon": 10.754174, "tags": {"addr:city": "Oslo", "addr:housenumber": "5C", "addr:postcode": "0183", "addr:street": "Ebbells gate"}}, {"type": "node", "id": 2785553714, "lat": 59.915615, "lon": 10.75426, "tags": {"addr:city": "Oslo", "addr:housenumber": "5D", "addr:postcode": "0183", "addr:street": "Ebbells gate"}}, {"type": "node", "id": 2785553726, "lat": 59.915917, "lon": 10.752423, "tags": {"addr:city": "Oslo", "addr:housenumber": "6A", "addr:postcode": "0183", "addr:street": "Bernt Ankers gate"}}, {"type": "node", "id": 2785553741, "lat": 59.915968, "lon": 10.753062, "tags": {"addr:city": "Oslo", "addr:housenumber": "6B", "addr:postcode": "0183", "addr:street": "Calmeyers gate"}}, {"type": "node", "id": 2785553756, "lat": 59.913305, "lon": 10.759772, "tags": {"addr:city": "Oslo", "addr:housenumber": "6", "addr:postcode": "0188", "addr:street": "Gr\u00f8nland"}}, {"type": "node", "id": 2785553763, "lat": 59.9157, "lon": 10.758682, "tags": {"addr:city": "Oslo", "addr:housenumber": "6", "addr:postcode": "0186", "addr:street": "Hausmanns gate"}}, {"type": "node", "id": 2785553770, "lat": 59.918418, "lon": 10.75151, "tags": {"addr:city": "Oslo", "addr:housenumber": "6", "addr:postcode": "0183", "addr:street": "Jess Carlsens gate"}}, {"type": "node", "id": 2785553802, "lat": 59.911913, "lon": 10.756443, "tags": {"addr:city": "Oslo", "addr:housenumber": "6", "addr:postcode": "0185", "addr:street": "Schweigaards gate"}}, {"type": "node", "id": 2785553809, "lat": 59.91251, "lon": 10.759497, "tags": {"addr:city": "Oslo", "addr:housenumber": "6", "addr:postcode": "0188", "addr:street": "Smalgangen"}}, {"type": "node", "id": 2785553825, "lat": 59.914675, "lon": 10.750686, "tags": {"addr:city": "Oslo", "addr:housenumber": "6", "addr:postcode": "0181", "addr:street": "Youngs gate"}}, {"type": "node", "id": 2785553856, "lat": 59.916651, "lon": 10.756765, "tags": {"addr:city": "Oslo", "addr:housenumber": "61", "addr:postcode": "0182", "addr:street": "Storgata"}}, {"type": "node", "id": 2785553864, "lat": 59.917038, "lon": 10.756016, "tags": {"addr:city": "Oslo", "addr:housenumber": "63", "addr:postcode": "0182", "addr:street": "Storgata"}}, {"type": "node", "id": 2785553880, "lat": 59.917424, "lon": 10.755303, "tags": {"addr:city": "Oslo", "addr:housenumber": "65", "addr:postcode": "0182", "addr:street": "Storgata"}}, {"type": "node", "id": 2785553893, "lat": 59.917565, "lon": 10.756187, "tags": {"addr:city": "Oslo", "addr:housenumber": "67", "addr:postcode": "0182", "addr:street": "Storgata"}}, {"type": "node", "id": 2785553901, "lat": 59.917564, "lon": 10.756294, "tags": {"addr:city": "Oslo", "addr:housenumber": "69", "addr:postcode": "0182", "addr:street": "Storgata"}}, {"type": "node", "id": 2785553921, "lat": 59.916, "lon": 10.75233, "tags": {"addr:city": "Oslo", "addr:housenumber": "6B", "addr:postcode": "0183", "addr:street": "Bernt Ankers gate"}}, {"type": "node", "id": 2785553941, "lat": 59.916098, "lon": 10.752389, "tags": {"addr:city": "Oslo", "addr:housenumber": "6C", "addr:postcode": "0183", "addr:street": "Bernt Ankers gate"}}, {"type": "node", "id": 2785553962, "lat": 59.916123, "lon": 10.752534, "tags": {"addr:city": "Oslo", "addr:housenumber": "6D", "addr:postcode": "0183", "addr:street": "Bernt Ankers gate"}}, {"type": "node", "id": 2785553997, "lat": 59.915208, "lon": 10.752913, "tags": {"addr:city": "Oslo", "addr:housenumber": "7", "addr:postcode": "0183", "addr:street": "Bernt Ankers gate"}}, {"type": "node", "id": 2785554006, "lat": 59.919744, "lon": 10.752456, "tags": {"addr:city": "Oslo", "addr:housenumber": "7", "addr:postcode": "0182", "addr:street": "Brenneriveien"}}, {"type": "node", "id": 2785554011, "lat": 59.913972, "lon": 10.755777, "tags": {"addr:city": "Oslo", "addr:housenumber": "7", "addr:postcode": "0186", "addr:street": "Brugata"}}, {"type": "node", "id": 2785554020, "lat": 59.913092, "lon": 10.759635, "tags": {"addr:city": "Oslo", "addr:housenumber": "7", "addr:postcode": "0188", "addr:street": "Gr\u00f8nland"}}, {"type": "node", "id": 2785554024, "lat": 59.915504, "lon": 10.757899, "tags": {"addr:city": "Oslo", "addr:housenumber": "7", "addr:postcode": "0186", "addr:street": "Hausmanns gate"}}, {"type": "node", "id": 2785554036, "lat": 59.912945, "lon": 10.759163, "tags": {"addr:city": "Oslo", "addr:housenumber": "7", "addr:postcode": "0188", "addr:street": "Olafiagangen"}}, {"type": "node", "id": 2785554040, "lat": 59.912301, "lon": 10.759647, "tags": {"addr:city": "Oslo", "addr:housenumber": "7", "addr:postcode": "0188", "addr:street": "Smalgangen"}}, {"type": "node", "id": 2785554047, "lat": 59.914829, "lon": 10.750797, "tags": {"addr:city": "Oslo", "addr:housenumber": "7", "addr:postcode": "0181", "addr:street": "Youngs gate"}}, {"type": "node", "id": 2785554051, "lat": 59.919167, "lon": 10.754644, "tags": {"addr:city": "Oslo", "addr:housenumber": "7", "addr:postcode": "0182", "addr:street": "\u00d8stre Elvebakke"}}, {"type": "node", "id": 2785554055, "lat": 59.917473, "lon": 10.756343, "tags": {"addr:city": "Oslo", "addr:housenumber": "71", "addr:postcode": "0182", "addr:street": "Storgata"}}, {"type": "node", "id": 2785554063, "lat": 59.917329, "lon": 10.756425, "tags": {"addr:city": "Oslo", "addr:housenumber": "73", "addr:postcode": "0182", "addr:street": "Storgata"}}, {"type": "node", "id": 2785554121, "lat": 59.917249, "lon": 10.756349, "tags": {"addr:city": "Oslo", "addr:housenumber": "75", "addr:postcode": "0182", "addr:street": "Storgata"}}, {"type": "node", "id": 2785554129, "lat": 59.917224, "lon": 10.756169, "tags": {"addr:city": "Oslo", "addr:housenumber": "77", "addr:postcode": "0182", "addr:street": "Storgata"}}, {"type": "node", "id": 2785554137, "lat": 59.917194, "lon": 10.756454, "tags": {"addr:city": "Oslo", "addr:housenumber": "79", "addr:postcode": "0182", "addr:street": "Storgata"}}, {"type": "node", "id": 2785554143, "lat": 59.915907, "lon": 10.753935, "tags": {"addr:city": "Oslo", "addr:housenumber": "7A", "addr:postcode": "0183", "addr:street": "Calmeyers gate"}}, {"type": "node", "id": 2785554147, "lat": 59.915718, "lon": 10.753943, "tags": {"addr:city": "Oslo", "addr:housenumber": "7A", "addr:postcode": "0183", "addr:street": "Ebbells gate"}}, {"type": "node", "id": 2785554152, "lat": 59.916424, "lon": 10.750686, "tags": {"addr:city": "Oslo", "addr:housenumber": "7A", "addr:postcode": "0183", "addr:street": "Mariboes gate"}}, {"type": "node", "id": 2785554172, "lat": 59.915873, "lon": 10.753808, "tags": {"addr:city": "Oslo", "addr:housenumber": "7B", "addr:postcode": "0183", "addr:street": "Calmeyers gate"}}, {"type": "node", "id": 2785554180, "lat": 59.915761, "lon": 10.754124, "tags": {"addr:city": "Oslo", "addr:housenumber": "7B", "addr:postcode": "0183", "addr:street": "Ebbells gate"}}, {"type": "node", "id": 2785554189, "lat": 59.916379, "lon": 10.750812, "tags": {"addr:city": "Oslo", "addr:housenumber": "7B", "addr:postcode": "0183", "addr:street": "Mariboes gate"}}, {"type": "node", "id": 2785554258, "lat": 59.916607, "lon": 10.751289, "tags": {"addr:city": "Oslo", "addr:housenumber": "8", "addr:postcode": "0183", "addr:street": "Bernt Ankers gate"}}, {"type": "node", "id": 2785554266, "lat": 59.914077, "lon": 10.754447, "tags": {"addr:city": "Oslo", "addr:housenumber": "8", "addr:postcode": "0186", "addr:street": "Brugata"}}, {"type": "node", "id": 2785554286, "lat": 59.913286, "lon": 10.759878, "tags": {"addr:city": "Oslo", "addr:housenumber": "8", "addr:postcode": "0188", "addr:street": "Gr\u00f8nland"}}, {"type": "node", "id": 2785554294, "lat": 59.91854, "lon": 10.751784, "tags": {"addr:city": "Oslo", "addr:housenumber": "8", "addr:postcode": "0183", "addr:street": "Jess Carlsens gate"}}, {"type": "node", "id": 2785554305, "lat": 59.916682, "lon": 10.750517, "tags": {"addr:city": "Oslo", "addr:housenumber": "8", "addr:postcode": "0183", "addr:street": "Mariboes gate"}}, {"type": "node", "id": 2785554331, "lat": 59.911815, "lon": 10.757064, "tags": {"addr:city": "Oslo", "addr:housenumber": "8", "addr:postcode": "0185", "addr:street": "Schweigaards gate"}}, {"type": "node", "id": 2785554337, "lat": 59.912461, "lon": 10.759745, "tags": {"addr:city": "Oslo", "addr:housenumber": "8", "addr:postcode": "0188", "addr:street": "Smalgangen"}}, {"type": "node", "id": 2785554357, "lat": 59.913182, "lon": 10.752182, "tags": {"addr:city": "Oslo", "addr:housenumber": "8", "addr:postcode": "0184", "addr:street": "Stenersgata"}}, {"type": "node", "id": 2785554383, "lat": 59.917138, "lon": 10.757238, "tags": {"addr:city": "Oslo", "addr:housenumber": "81", "addr:postcode": "0182", "addr:street": "Storgata"}}, {"type": "node", "id": 2785554394, "lat": 59.917203, "lon": 10.757116, "tags": {"addr:city": "Oslo", "addr:housenumber": "83", "addr:postcode": "0182", "addr:street": "Storgata"}}, {"type": "node", "id": 2785554405, "lat": 59.917266, "lon": 10.757048, "tags": {"addr:city": "Oslo", "addr:housenumber": "85", "addr:postcode": "0182", "addr:street": "Storgata"}}, {"type": "node", "id": 2785554416, "lat": 59.917473, "lon": 10.757077, "tags": {"addr:city": "Oslo", "addr:housenumber": "87", "addr:postcode": "0182", "addr:street": "Storgata"}}, {"type": "node", "id": 2785554427, "lat": 59.917528, "lon": 10.756972, "tags": {"addr:city": "Oslo", "addr:housenumber": "89", "addr:postcode": "0182", "addr:street": "Storgata"}}, {"type": "node", "id": 2785554438, "lat": 59.916562, "lon": 10.756653, "tags": {"addr:city": "Oslo", "addr:housenumber": "8A", "addr:postcode": "0182", "addr:street": "Hausmanns gate"}}, {"type": "node", "id": 2785554458, "lat": 59.915979, "lon": 10.753397, "tags": {"addr:city": "Oslo", "addr:housenumber": "8B", "addr:postcode": "0183", "addr:street": "Calmeyers gate"}}, {"type": "node", "id": 2785554469, "lat": 59.916718, "lon": 10.756393, "tags": {"addr:city": "Oslo", "addr:housenumber": "8B", "addr:postcode": "0182", "addr:street": "Hausmanns gate"}}, {"type": "node", "id": 2785554488, "lat": 59.916737, "lon": 10.756358, "tags": {"addr:city": "Oslo", "addr:housenumber": "8C", "addr:postcode": "0182", "addr:street": "Hausmanns gate"}}, {"type": "node", "id": 2785554497, "lat": 59.916866, "lon": 10.756097, "tags": {"addr:city": "Oslo", "addr:housenumber": "8D", "addr:postcode": "0182", "addr:street": "Hausmanns gate"}}, {"type": "node", "id": 2785554519, "lat": 59.916884, "lon": 10.756062, "tags": {"addr:city": "Oslo", "addr:housenumber": "8E", "addr:postcode": "0182", "addr:street": "Hausmanns gate"}}, {"type": "node", "id": 2785554551, "lat": 59.917096, "lon": 10.755697, "tags": {"addr:city": "Oslo", "addr:housenumber": "8F", "addr:postcode": "0182", "addr:street": "Hausmanns gate"}}, {"type": "node", "id": 2785554558, "lat": 59.917114, "lon": 10.755663, "tags": {"addr:city": "Oslo", "addr:housenumber": "8G", "addr:postcode": "0182", "addr:street": "Hausmanns gate"}}, {"type": "node", "id": 2785554566, "lat": 59.917289, "lon": 10.755332, "tags": {"addr:city": "Oslo", "addr:housenumber": "8H", "addr:postcode": "0182", "addr:street": "Hausmanns gate"}}, {"type": "node", "id": 2785554569, "lat": 59.917316, "lon": 10.755281, "tags": {"addr:city": "Oslo", "addr:housenumber": "8J", "addr:postcode": "0182", "addr:street": "Hausmanns gate"}}, {"type": "node", "id": 2785554573, "lat": 59.917537, "lon": 10.754862, "tags": {"addr:city": "Oslo", "addr:housenumber": "8K", "addr:postcode": "0182", "addr:street": "Hausmanns gate"}}, {"type": "node", "id": 2785554577, "lat": 59.91762, "lon": 10.754777, "tags": {"addr:city": "Oslo", "addr:housenumber": "8L", "addr:postcode": "0182", "addr:street": "Hausmanns gate"}}, {"type": "node", "id": 2785554592, "lat": 59.913062, "lon": 10.759795, "tags": {"addr:city": "Oslo", "addr:housenumber": "9", "addr:postcode": "0188", "addr:street": "Gr\u00f8nland"}}, {"type": "node", "id": 2785554594, "lat": 59.914913, "lon": 10.752275, "tags": {"addr:city": "Oslo", "addr:housenumber": "9", "addr:postcode": "0181", "addr:street": "Hammersborggata"}}, {"type": "node", "id": 2785554598, "lat": 59.916579, "lon": 10.750676, "tags": {"addr:city": "Oslo", "addr:housenumber": "9", "addr:postcode": "0183", "addr:street": "Mariboes gate"}}, {"type": "node", "id": 2785554614, "lat": 59.913008, "lon": 10.759184, "tags": {"addr:city": "Oslo", "addr:housenumber": "9", "addr:postcode": "0188", "addr:street": "Olafiagangen"}}, {"type": "node", "id": 2785554632, "lat": 59.914859, "lon": 10.750714, "tags": {"addr:city": "Oslo", "addr:housenumber": "9", "addr:postcode": "0181", "addr:street": "Youngs gate"}}, {"type": "node", "id": 2785554636, "lat": 59.917512, "lon": 10.756828, "tags": {"addr:city": "Oslo", "addr:housenumber": "91", "addr:postcode": "0182", "addr:street": "Storgata"}}, {"type": "node", "id": 2785554640, "lat": 59.917751, "lon": 10.75575, "tags": {"addr:city": "Oslo", "addr:housenumber": "93", "addr:postcode": "0182", "addr:street": "Storgata"}}, {"type": "node", "id": 2785554644, "lat": 59.917644, "lon": 10.755655, "tags": {"addr:city": "Oslo", "addr:housenumber": "95", "addr:postcode": "0182", "addr:street": "Storgata"}}, {"type": "node", "id": 2785554647, "lat": 59.917585, "lon": 10.755419, "tags": {"addr:city": "Oslo", "addr:housenumber": "97", "addr:postcode": "0182", "addr:street": "Storgata"}}, {"type": "node", "id": 2785554651, "lat": 59.91625, "lon": 10.75449, "tags": {"addr:city": "Oslo", "addr:housenumber": "9A", "addr:postcode": "0183", "addr:street": "Calmeyers gate"}}, {"type": "node", "id": 2785554659, "lat": 59.912261, "lon": 10.759931, "tags": {"addr:city": "Oslo", "addr:housenumber": "9A", "addr:postcode": "0188", "addr:street": "Smalgangen"}}, {"type": "node", "id": 2785554667, "lat": 59.916215, "lon": 10.754619, "tags": {"addr:city": "Oslo", "addr:housenumber": "9B", "addr:postcode": "0183", "addr:street": "Calmeyers gate"}}, {"type": "node", "id": 2785554682, "lat": 59.916147, "lon": 10.754681, "tags": {"addr:city": "Oslo", "addr:housenumber": "9C", "addr:postcode": "0183", "addr:street": "Calmeyers gate"}}, {"type": "node", "id": 2785634062, "lat": 59.916191, "lon": 10.750974, "tags": {"addr:city": "Oslo", "addr:housenumber": "7", "addr:postcode": "0183", "addr:street": "Badstugata"}}, {"type": "node", "id": 2785636548, "lat": 59.91939, "lon": 10.750983, "tags": {"addr:city": "Oslo", "addr:housenumber": "1A", "addr:postcode": "0178", "addr:street": "Rosteds gate"}}, {"type": "node", "id": 2785636591, "lat": 59.919447, "lon": 10.751117, "tags": {"addr:city": "Oslo", "addr:housenumber": "1B", "addr:postcode": "0178", "addr:street": "Rosteds gate"}}, {"type": "node", "id": 2785636685, "lat": 59.919546, "lon": 10.751113, "tags": {"addr:city": "Oslo", "addr:housenumber": "2", "addr:postcode": "0178", "addr:street": "Maridalsveien"}}, {"type": "node", "id": 2785637476, "lat": 59.919964, "lon": 10.750733, "tags": {"addr:city": "Oslo", "addr:housenumber": "2A", "addr:postcode": "0178", "addr:street": "Deichmans gate"}}, {"type": "node", "id": 2785637482, "lat": 59.919877, "lon": 10.751175, "tags": {"addr:city": "Oslo", "addr:housenumber": "2A", "addr:postcode": "0178", "addr:street": "Iduns gate"}}, {"type": "node", "id": 2785637483, "lat": 59.919145, "lon": 10.750904, "tags": {"addr:city": "Oslo", "addr:housenumber": "2A", "addr:postcode": "0178", "addr:street": "Rosteds gate"}}, {"type": "node", "id": 2785637485, "lat": 59.917787, "lon": 10.750128, "tags": {"addr:city": "Oslo", "addr:housenumber": "47F", "addr:postcode": "0179", "addr:street": "M\u00f8llergata"}}, {"type": "node", "id": 2785637488, "lat": 59.919975, "lon": 10.75059, "tags": {"addr:city": "Oslo", "addr:housenumber": "2B", "addr:postcode": "0178", "addr:street": "Deichmans gate"}}, {"type": "node", "id": 2785637509, "lat": 59.919797, "lon": 10.751117, "tags": {"addr:city": "Oslo", "addr:housenumber": "2B", "addr:postcode": "0178", "addr:street": "Iduns gate"}}, {"type": "node", "id": 2785637513, "lat": 59.919046, "lon": 10.750917, "tags": {"addr:city": "Oslo", "addr:housenumber": "2B", "addr:postcode": "0178", "addr:street": "Rosteds gate"}}, {"type": "node", "id": 2785637552, "lat": 59.919895, "lon": 10.750514, "tags": {"addr:city": "Oslo", "addr:housenumber": "2C", "addr:postcode": "0178", "addr:street": "Deichmans gate"}}, {"type": "node", "id": 2785637566, "lat": 59.919819, "lon": 10.75085, "tags": {"addr:city": "Oslo", "addr:housenumber": "2C", "addr:postcode": "0178", "addr:street": "Iduns gate"}}, {"type": "node", "id": 2785637583, "lat": 59.919926, "lon": 10.750927, "tags": {"addr:city": "Oslo", "addr:housenumber": "2D", "addr:postcode": "0178", "addr:street": "Iduns gate"}}, {"type": "node", "id": 2785637782, "lat": 59.917456, "lon": 10.750261, "tags": {"addr:city": "Oslo", "addr:housenumber": "34A", "addr:postcode": "0179", "addr:street": "M\u00f8llergata"}}, {"type": "node", "id": 2785637792, "lat": 59.917505, "lon": 10.750621, "tags": {"addr:city": "Oslo", "addr:housenumber": "34B", "addr:postcode": "0179", "addr:street": "M\u00f8llergata"}}, {"type": "node", "id": 2785637796, "lat": 59.917344, "lon": 10.750577, "tags": {"addr:city": "Oslo", "addr:housenumber": "34C", "addr:postcode": "0179", "addr:street": "M\u00f8llergata"}}, {"type": "node", "id": 2785637801, "lat": 59.917294, "lon": 10.750288, "tags": {"addr:city": "Oslo", "addr:housenumber": "34D", "addr:postcode": "0179", "addr:street": "M\u00f8llergata"}}, {"type": "node", "id": 2785637849, "lat": 59.917669, "lon": 10.750297, "tags": {"addr:city": "Oslo", "addr:housenumber": "38A", "addr:postcode": "0179", "addr:street": "M\u00f8llergata"}}, {"type": "node", "id": 2785637851, "lat": 59.917644, "lon": 10.750932, "tags": {"addr:city": "Oslo", "addr:housenumber": "38B", "addr:postcode": "0179", "addr:street": "M\u00f8llergata"}}, {"type": "node", "id": 2785637853, "lat": 59.917555, "lon": 10.750874, "tags": {"addr:city": "Oslo", "addr:housenumber": "38C", "addr:postcode": "0179", "addr:street": "M\u00f8llergata"}}, {"type": "node", "id": 2785637873, "lat": 59.919433, "lon": 10.750812, "tags": {"addr:city": "Oslo", "addr:housenumber": "3A", "addr:postcode": "0178", "addr:street": "Rosteds gate"}}, {"type": "node", "id": 2785637888, "lat": 59.919523, "lon": 10.750799, "tags": {"addr:city": "Oslo", "addr:housenumber": "3B", "addr:postcode": "0178", "addr:street": "Rosteds gate"}}, {"type": "node", "id": 2785637995, "lat": 59.917884, "lon": 10.750498, "tags": {"addr:city": "Oslo", "addr:housenumber": "40", "addr:postcode": "0179", "addr:street": "M\u00f8llergata"}}, {"type": "node", "id": 2785638039, "lat": 59.918026, "lon": 10.750613, "tags": {"addr:city": "Oslo", "addr:housenumber": "42", "addr:postcode": "0179", "addr:street": "M\u00f8llergata"}}, {"type": "node", "id": 2785638054, "lat": 59.91815, "lon": 10.750709, "tags": {"addr:city": "Oslo", "addr:housenumber": "42B", "addr:postcode": "0179", "addr:street": "M\u00f8llergata"}}, {"type": "node", "id": 2785638101, "lat": 59.918407, "lon": 10.750915, "tags": {"addr:city": "Oslo", "addr:housenumber": "44", "addr:postcode": "0179", "addr:street": "M\u00f8llergata"}}, {"type": "node", "id": 2785638118, "lat": 59.916291, "lon": 10.750437, "tags": {"addr:city": "Oslo", "addr:housenumber": "8", "addr:postcode": "0183", "addr:street": "Badstugata"}}, {"type": "node", "id": 2785638119, "lat": 59.918581, "lon": 10.751059, "tags": {"addr:city": "Oslo", "addr:housenumber": "46", "addr:postcode": "0179", "addr:street": "M\u00f8llergata"}}, {"type": "node", "id": 2785638152, "lat": 59.917695, "lon": 10.750053, "tags": {"addr:city": "Oslo", "addr:housenumber": "47B", "addr:postcode": "0179", "addr:street": "M\u00f8llergata"}}, {"type": "node", "id": 2785638176, "lat": 59.916211, "lon": 10.750614, "tags": {"addr:city": "Oslo", "addr:housenumber": "6", "addr:postcode": "0183", "addr:street": "Badstugata"}}, {"type": "node", "id": 2785638181, "lat": 59.918601, "lon": 10.751251, "tags": {"addr:city": "Oslo", "addr:housenumber": "48", "addr:postcode": "0179", "addr:street": "M\u00f8llergata"}}, {"type": "node", "id": 2785638195, "lat": 59.91819, "lon": 10.750407, "tags": {"addr:city": "Oslo", "addr:housenumber": "49", "addr:postcode": "0179", "addr:street": "M\u00f8llergata"}}, {"type": "node", "id": 2785638240, "lat": 59.919699, "lon": 10.750379, "tags": {"addr:city": "Oslo", "addr:housenumber": "4A", "addr:postcode": "0178", "addr:street": "Deichmans gate"}}, {"type": "node", "id": 2785638281, "lat": 59.91968, "lon": 10.751165, "tags": {"addr:city": "Oslo", "addr:housenumber": "4A", "addr:postcode": "0178", "addr:street": "Maridalsveien"}}, {"type": "node", "id": 2785638282, "lat": 59.919175, "lon": 10.750619, "tags": {"addr:city": "Oslo", "addr:housenumber": "4A", "addr:postcode": "0178", "addr:street": "Rosteds gate"}}, {"type": "node", "id": 2785638289, "lat": 59.919797, "lon": 10.750455, "tags": {"addr:city": "Oslo", "addr:housenumber": "4B", "addr:postcode": "0178", "addr:street": "Deichmans gate"}}, {"type": "node", "id": 2785638299, "lat": 59.919662, "lon": 10.751164, "tags": {"addr:city": "Oslo", "addr:housenumber": "4B", "addr:postcode": "0178", "addr:street": "Maridalsveien"}}, {"type": "node", "id": 2785638300, "lat": 59.919042, "lon": 10.750541, "tags": {"addr:city": "Oslo", "addr:housenumber": "4B", "addr:postcode": "0178", "addr:street": "Rosteds gate"}}, {"type": "node", "id": 2785638311, "lat": 59.919683, "lon": 10.750968, "tags": {"addr:city": "Oslo", "addr:housenumber": "4C", "addr:postcode": "0178", "addr:street": "Maridalsveien"}}, {"type": "node", "id": 2785638318, "lat": 59.9196, "lon": 10.751125, "tags": {"addr:city": "Oslo", "addr:housenumber": "4D", "addr:postcode": "0178", "addr:street": "Maridalsveien"}}, {"type": "node", "id": 2785638331, "lat": 59.919848, "lon": 10.750029, "tags": {"addr:city": "Oslo", "addr:housenumber": "5", "addr:postcode": "0178", "addr:street": "Deichmans gate"}}, {"type": "node", "id": 2785638369, "lat": 59.919393, "lon": 10.750488, "tags": {"addr:city": "Oslo", "addr:housenumber": "5", "addr:postcode": "0178", "addr:street": "Rosteds gate"}}, {"type": "node", "id": 2785638387, "lat": 59.918809, "lon": 10.751425, "tags": {"addr:city": "Oslo", "addr:housenumber": "50", "addr:postcode": "0179", "addr:street": "M\u00f8llergata"}}, {"type": "node", "id": 2785638404, "lat": 59.918964, "lon": 10.751664, "tags": {"addr:city": "Oslo", "addr:housenumber": "52", "addr:postcode": "0179", "addr:street": "M\u00f8llergata"}}, {"type": "node", "id": 2785638408, "lat": 59.918952, "lon": 10.750956, "tags": {"addr:city": "Oslo", "addr:housenumber": "53", "addr:postcode": "0179", "addr:street": "M\u00f8llergata"}}, {"type": "node", "id": 2785638430, "lat": 59.918763, "lon": 10.751206, "tags": {"addr:city": "Oslo", "addr:housenumber": "54", "addr:postcode": "0179", "addr:street": "M\u00f8llergata"}}, {"type": "node", "id": 2785638457, "lat": 59.918827, "lon": 10.751261, "tags": {"addr:city": "Oslo", "addr:housenumber": "56", "addr:postcode": "0179", "addr:street": "M\u00f8llergata"}}, {"type": "node", "id": 2785638517, "lat": 59.919006, "lon": 10.751528, "tags": {"addr:city": "Oslo", "addr:housenumber": "58", "addr:postcode": "0179", "addr:street": "M\u00f8llergata"}}, {"type": "node", "id": 2785638688, "lat": 59.919241, "lon": 10.750408, "tags": {"addr:city": "Oslo", "addr:housenumber": "6A", "addr:postcode": "0178", "addr:street": "Rosteds gate"}}, {"type": "node", "id": 2785638700, "lat": 59.919073, "lon": 10.750292, "tags": {"addr:city": "Oslo", "addr:housenumber": "6B", "addr:postcode": "0178", "addr:street": "Rosteds gate"}}, {"type": "node", "id": 2785638706, "lat": 59.919155, "lon": 10.750016, "tags": {"addr:city": "Oslo", "addr:housenumber": "6C", "addr:postcode": "0178", "addr:street": "Deichmans gate"}}, {"type": "node", "id": 2785638710, "lat": 59.919199, "lon": 10.750173, "tags": {"addr:city": "Oslo", "addr:housenumber": "6D", "addr:postcode": "0178", "addr:street": "Deichmans gate"}}, {"type": "node", "id": 2785638829, "lat": 59.919503, "lon": 10.750279, "tags": {"addr:city": "Oslo", "addr:housenumber": "7A", "addr:postcode": "0178", "addr:street": "Rosteds gate"}}, {"type": "node", "id": 2785638880, "lat": 59.919566, "lon": 10.750264, "tags": {"addr:city": "Oslo", "addr:housenumber": "7B", "addr:postcode": "0178", "addr:street": "Rosteds gate"}}, {"type": "node", "id": 2785638887, "lat": 59.919581, "lon": 10.75048, "tags": {"addr:city": "Oslo", "addr:housenumber": "7C", "addr:postcode": "0178", "addr:street": "Rosteds gate"}}, {"type": "node", "id": 2785638964, "lat": 59.91902, "lon": 10.75011, "tags": {"addr:city": "Oslo", "addr:housenumber": "8B", "addr:postcode": "0178", "addr:street": "Deichmans gate"}}, {"type": "node", "id": 2785919768, "lat": 59.910875, "lon": 10.750737, "tags": {"addr:city": "Oslo", "addr:housenumber": "1", "addr:postcode": "0154", "addr:street": "Jernbanetorget"}}, {"type": "node", "id": 2785919933, "lat": 59.913262, "lon": 10.750183, "tags": {"addr:city": "Oslo", "addr:housenumber": "12", "addr:postcode": "0155", "addr:street": "Storgata"}}, {"type": "node", "id": 2785920705, "lat": 59.912979, "lon": 10.750561, "tags": {"addr:city": "Oslo", "addr:housenumber": "3", "addr:postcode": "0155", "addr:street": "Nygata"}}, {"type": "node", "id": 2785921007, "lat": 59.911771, "lon": 10.751553, "tags": {"addr:city": "Oslo", "addr:housenumber": "6", "addr:postcode": "0154", "addr:street": "Jernbanetorget"}}, {"type": "node", "id": 2790200431, "lat": 59.918422, "lon": 10.759116, "tags": {"addr:city": "Oslo", "addr:housenumber": "1", "addr:postcode": "0550", "addr:street": "S\u00f8ndre gate"}}, {"type": "node", "id": 2790200441, "lat": 59.918719, "lon": 10.758556, "tags": {"addr:city": "Oslo", "addr:housenumber": "10", "addr:postcode": "0550", "addr:street": "S\u00f8ndre gate"}}, {"type": "node", "id": 2790200444, "lat": 59.919766, "lon": 10.756822, "tags": {"addr:city": "Oslo", "addr:housenumber": "10", "addr:postcode": "0550", "addr:street": "Torvbakkgata"}}, {"type": "node", "id": 2790200449, "lat": 59.9192, "lon": 10.758188, "tags": {"addr:city": "Oslo", "addr:housenumber": "10A", "addr:postcode": "0550", "addr:street": "Leirfallsgata"}}, {"type": "node", "id": 2790200460, "lat": 59.91937, "lon": 10.758268, "tags": {"addr:city": "Oslo", "addr:housenumber": "10B", "addr:postcode": "0550", "addr:street": "Leirfallsgata"}}, {"type": "node", "id": 2790200470, "lat": 59.91938, "lon": 10.758179, "tags": {"addr:city": "Oslo", "addr:housenumber": "10C", "addr:postcode": "0550", "addr:street": "Leirfallsgata"}}, {"type": "node", "id": 2790200507, "lat": 59.919064, "lon": 10.75895, "tags": {"addr:city": "Oslo", "addr:housenumber": "11", "addr:postcode": "0550", "addr:street": "Leirfallsgata"}}, {"type": "node", "id": 2790200621, "lat": 59.919699, "lon": 10.757123, "tags": {"addr:city": "Oslo", "addr:housenumber": "12", "addr:postcode": "0550", "addr:street": "Torvbakkgata"}}, {"type": "node", "id": 2790200632, "lat": 59.918716, "lon": 10.758842, "tags": {"addr:city": "Oslo", "addr:housenumber": "12A", "addr:postcode": "0550", "addr:street": "S\u00f8ndre gate"}}, {"type": "node", "id": 2790200643, "lat": 59.918797, "lon": 10.758828, "tags": {"addr:city": "Oslo", "addr:housenumber": "12B", "addr:postcode": "0550", "addr:street": "S\u00f8ndre gate"}}, {"type": "node", "id": 2790201333, "lat": 59.918746, "lon": 10.756589, "tags": {"addr:city": "Oslo", "addr:housenumber": "2", "addr:postcode": "0550", "addr:street": "S\u00f8ndre gate"}}, {"type": "node", "id": 2790201822, "lat": 59.919971, "lon": 10.758121, "tags": {"addr:city": "Oslo", "addr:housenumber": "25B", "addr:postcode": "0551", "addr:street": "Korsgata"}}, {"type": "node", "id": 2790201829, "lat": 59.919969, "lon": 10.758293, "tags": {"addr:city": "Oslo", "addr:housenumber": "25C", "addr:postcode": "0551", "addr:street": "Korsgata"}}, {"type": "node", "id": 2790201833, "lat": 59.919823, "lon": 10.758235, "tags": {"addr:city": "Oslo", "addr:housenumber": "25D", "addr:postcode": "0551", "addr:street": "Korsgata"}}, {"type": "node", "id": 2790201991, "lat": 59.919859, "lon": 10.758598, "tags": {"addr:city": "Oslo", "addr:housenumber": "27B", "addr:postcode": "0551", "addr:street": "Korsgata"}}, {"type": "node", "id": 2790202013, "lat": 59.919853, "lon": 10.758419, "tags": {"addr:city": "Oslo", "addr:housenumber": "27C", "addr:postcode": "0551", "addr:street": "Korsgata"}}, {"type": "node", "id": 2790202070, "lat": 59.919804, "lon": 10.756019, "tags": {"addr:city": "Oslo", "addr:housenumber": "2A", "addr:postcode": "0550", "addr:street": "Torvbakkgata"}}, {"type": "node", "id": 2790202087, "lat": 59.919957, "lon": 10.756027, "tags": {"addr:city": "Oslo", "addr:housenumber": "2B", "addr:postcode": "0550", "addr:street": "Torvbakkgata"}}, {"type": "node", "id": 2790202096, "lat": 59.919969, "lon": 10.756457, "tags": {"addr:city": "Oslo", "addr:housenumber": "2C", "addr:postcode": "0550", "addr:street": "Torvbakkgata"}}, {"type": "node", "id": 2790202207, "lat": 59.919954, "lon": 10.758925, "tags": {"addr:city": "Oslo", "addr:housenumber": "31A", "addr:postcode": "0551", "addr:street": "Korsgata"}}, {"type": "node", "id": 2790202229, "lat": 59.919971, "lon": 10.759016, "tags": {"addr:city": "Oslo", "addr:housenumber": "31B", "addr:postcode": "0551", "addr:street": "Korsgata"}}, {"type": "node", "id": 2790202678, "lat": 59.919068, "lon": 10.757984, "tags": {"addr:city": "Oslo", "addr:housenumber": "5", "addr:postcode": "0550", "addr:street": "Leirfallsgata"}}, {"type": "node", "id": 2790202685, "lat": 59.919896, "lon": 10.753806, "tags": {"addr:city": "Oslo", "addr:housenumber": "5", "addr:postcode": "0551", "addr:street": "Nedre gate"}}, {"type": "node", "id": 2790202762, "lat": 59.919958, "lon": 10.757734, "tags": {"addr:city": "Oslo", "addr:housenumber": "56", "addr:postcode": "0550", "addr:street": "Markveien"}}, {"type": "node", "id": 2790202765, "lat": 59.919711, "lon": 10.757624, "tags": {"addr:city": "Oslo", "addr:housenumber": "56B", "addr:postcode": "0550", "addr:street": "Markveien"}}, {"type": "node", "id": 2790202768, "lat": 59.919594, "lon": 10.757636, "tags": {"addr:city": "Oslo", "addr:housenumber": "56C", "addr:postcode": "0550", "addr:street": "Markveien"}}, {"type": "node", "id": 2790202770, "lat": 59.919592, "lon": 10.757779, "tags": {"addr:city": "Oslo", "addr:housenumber": "56D", "addr:postcode": "0550", "addr:street": "Markveien"}}, {"type": "node", "id": 2790202772, "lat": 59.91973, "lon": 10.758216, "tags": {"addr:city": "Oslo", "addr:housenumber": "56E", "addr:postcode": "0550", "addr:street": "Markveien"}}, {"type": "node", "id": 2790202774, "lat": 59.919595, "lon": 10.758209, "tags": {"addr:city": "Oslo", "addr:housenumber": "56F", "addr:postcode": "0550", "addr:street": "Markveien"}}, {"type": "node", "id": 2790202776, "lat": 59.919479, "lon": 10.757523, "tags": {"addr:city": "Oslo", "addr:housenumber": "56G", "addr:postcode": "0550", "addr:street": "Markveien"}}, {"type": "node", "id": 2790202777, "lat": 59.919471, "lon": 10.758113, "tags": {"addr:city": "Oslo", "addr:housenumber": "56H", "addr:postcode": "0550", "addr:street": "Markveien"}}, {"type": "node", "id": 2790202778, "lat": 59.919516, "lon": 10.758115, "tags": {"addr:city": "Oslo", "addr:housenumber": "56J", "addr:postcode": "0550", "addr:street": "Markveien"}}, {"type": "node", "id": 2790202779, "lat": 59.919529, "lon": 10.757794, "tags": {"addr:city": "Oslo", "addr:housenumber": "56K", "addr:postcode": "0550", "addr:street": "Markveien"}}, {"type": "node", "id": 2790202780, "lat": 59.919959, "lon": 10.757226, "tags": {"addr:city": "Oslo", "addr:housenumber": "57", "addr:postcode": "0550", "addr:street": "Markveien"}}, {"type": "node", "id": 2790202785, "lat": 59.91882, "lon": 10.757615, "tags": {"addr:city": "Oslo", "addr:housenumber": "60A", "addr:postcode": "0550", "addr:street": "Markveien"}}, {"type": "node", "id": 2790202790, "lat": 59.919498, "lon": 10.757041, "tags": {"addr:city": "Oslo", "addr:housenumber": "59A", "addr:postcode": "0550", "addr:street": "Markveien"}}, {"type": "node", "id": 2790202792, "lat": 59.919464, "lon": 10.757087, "tags": {"addr:city": "Oslo", "addr:housenumber": "59B", "addr:postcode": "0550", "addr:street": "Markveien"}}, {"type": "node", "id": 2790202835, "lat": 59.919963, "lon": 10.755527, "tags": {"addr:city": "Oslo", "addr:housenumber": "5A", "addr:postcode": "0551", "addr:street": "\u00d8vre gate"}}, {"type": "node", "id": 2790202874, "lat": 59.919991, "lon": 10.755475, "tags": {"addr:city": "Oslo", "addr:housenumber": "5B", "addr:postcode": "0551", "addr:street": "\u00d8vre gate"}}, {"type": "node", "id": 2790202900, "lat": 59.919992, "lon": 10.755403, "tags": {"addr:city": "Oslo", "addr:housenumber": "5C", "addr:postcode": "0551", "addr:street": "\u00d8vre gate"}}, {"type": "node", "id": 2790202922, "lat": 59.919335, "lon": 10.757515, "tags": {"addr:city": "Oslo", "addr:housenumber": "6", "addr:postcode": "0550", "addr:street": "Leirfallsgata"}}, {"type": "node", "id": 2790202941, "lat": 59.918718, "lon": 10.757965, "tags": {"addr:city": "Oslo", "addr:housenumber": "6", "addr:postcode": "0550", "addr:street": "S\u00f8ndre gate"}}, {"type": "node", "id": 2790202962, "lat": 59.919339, "lon": 10.757211, "tags": {"addr:city": "Oslo", "addr:housenumber": "61", "addr:postcode": "0550", "addr:street": "Markveien"}}, {"type": "node", "id": 2790202975, "lat": 59.919259, "lon": 10.757153, "tags": {"addr:city": "Oslo", "addr:housenumber": "63", "addr:postcode": "0550", "addr:street": "Markveien"}}, {"type": "node", "id": 2790202980, "lat": 59.919035, "lon": 10.757141, "tags": {"addr:city": "Oslo", "addr:housenumber": "65", "addr:postcode": "0550", "addr:street": "Markveien"}}, {"type": "node", "id": 2790202984, "lat": 59.919201, "lon": 10.756792, "tags": {"addr:city": "Oslo", "addr:housenumber": "65C", "addr:postcode": "0550", "addr:street": "Markveien"}}, {"type": "node", "id": 2790203011, "lat": 59.918883, "lon": 10.757044, "tags": {"addr:city": "Oslo", "addr:housenumber": "67A", "addr:postcode": "0550", "addr:street": "Markveien"}}, {"type": "node", "id": 2790203012, "lat": 59.918784, "lon": 10.757057, "tags": {"addr:city": "Oslo", "addr:housenumber": "67B", "addr:postcode": "0550", "addr:street": "Markveien"}}, {"type": "node", "id": 2790203013, "lat": 59.918805, "lon": 10.756825, "tags": {"addr:city": "Oslo", "addr:housenumber": "67C", "addr:postcode": "0550", "addr:street": "Markveien"}}, {"type": "node", "id": 2790203109, "lat": 59.919073, "lon": 10.75827, "tags": {"addr:city": "Oslo", "addr:housenumber": "7", "addr:postcode": "0550", "addr:street": "Leirfallsgata"}}, {"type": "node", "id": 2790203114, "lat": 59.919655, "lon": 10.754366, "tags": {"addr:city": "Oslo", "addr:housenumber": "7", "addr:postcode": "0551", "addr:street": "Nedre gate"}}, {"type": "node", "id": 2790203138, "lat": 59.919561, "lon": 10.756704, "tags": {"addr:city": "Oslo", "addr:housenumber": "7", "addr:postcode": "0550", "addr:street": "Torvbakkgata"}}, {"type": "node", "id": 2790203144, "lat": 59.919852, "lon": 10.755584, "tags": {"addr:city": "Oslo", "addr:housenumber": "7", "addr:postcode": "0551", "addr:street": "\u00d8vre gate"}}, {"type": "node", "id": 2790203170, "lat": 59.919838, "lon": 10.759545, "tags": {"addr:city": "Oslo", "addr:housenumber": "72", "addr:postcode": "0552", "addr:street": "Thorvald Meyers gate"}}, {"type": "node", "id": 2790203183, "lat": 59.919658, "lon": 10.759554, "tags": {"addr:city": "Oslo", "addr:housenumber": "74A", "addr:postcode": "0552", "addr:street": "Thorvald Meyers gate"}}, {"type": "node", "id": 2790203186, "lat": 59.919575, "lon": 10.759692, "tags": {"addr:city": "Oslo", "addr:housenumber": "74B", "addr:postcode": "0552", "addr:street": "Thorvald Meyers gate"}}, {"type": "node", "id": 2790203188, "lat": 59.919405, "lon": 10.759701, "tags": {"addr:city": "Oslo", "addr:housenumber": "76A", "addr:postcode": "0550", "addr:street": "Thorvald Meyers gate"}}, {"type": "node", "id": 2790203189, "lat": 59.919279, "lon": 10.759712, "tags": {"addr:city": "Oslo", "addr:housenumber": "76B", "addr:postcode": "0550", "addr:street": "Thorvald Meyers gate"}}, {"type": "node", "id": 2790203190, "lat": 59.919126, "lon": 10.759722, "tags": {"addr:city": "Oslo", "addr:housenumber": "76C", "addr:postcode": "0550", "addr:street": "Thorvald Meyers gate"}}, {"type": "node", "id": 2790203192, "lat": 59.918946, "lon": 10.759745, "tags": {"addr:city": "Oslo", "addr:housenumber": "78A", "addr:postcode": "0550", "addr:street": "Thorvald Meyers gate"}}, {"type": "node", "id": 2790203193, "lat": 59.918888, "lon": 10.759708, "tags": {"addr:city": "Oslo", "addr:housenumber": "78B", "addr:postcode": "0550", "addr:street": "Thorvald Meyers gate"}}, {"type": "node", "id": 2790203194, "lat": 59.918733, "lon": 10.759709, "tags": {"addr:city": "Oslo", "addr:housenumber": "78C", "addr:postcode": "0550", "addr:street": "Thorvald Meyers gate"}}, {"type": "node", "id": 2790203236, "lat": 59.918801, "lon": 10.758278, "tags": {"addr:city": "Oslo", "addr:housenumber": "8", "addr:postcode": "0550", "addr:street": "S\u00f8ndre gate"}}, {"type": "node", "id": 2790203240, "lat": 59.918643, "lon": 10.759571, "tags": {"addr:city": "Oslo", "addr:housenumber": "80", "addr:postcode": "0550", "addr:street": "Thorvald Meyers gate"}}, {"type": "node", "id": 2790203242, "lat": 59.919762, "lon": 10.759148, "tags": {"addr:city": "Oslo", "addr:housenumber": "83A", "addr:postcode": "0552", "addr:street": "Thorvald Meyers gate"}}, {"type": "node", "id": 2790203243, "lat": 59.919739, "lon": 10.758896, "tags": {"addr:city": "Oslo", "addr:housenumber": "83B", "addr:postcode": "0552", "addr:street": "Thorvald Meyers gate"}}, {"type": "node", "id": 2790203244, "lat": 59.919768, "lon": 10.758737, "tags": {"addr:city": "Oslo", "addr:housenumber": "83C", "addr:postcode": "0552", "addr:street": "Thorvald Meyers gate"}}, {"type": "node", "id": 2790203245, "lat": 59.919647, "lon": 10.759052, "tags": {"addr:city": "Oslo", "addr:housenumber": "85A", "addr:postcode": "0550", "addr:street": "Thorvald Meyers gate"}}, {"type": "node", "id": 2790203247, "lat": 59.919584, "lon": 10.759049, "tags": {"addr:city": "Oslo", "addr:housenumber": "85B", "addr:postcode": "0550", "addr:street": "Thorvald Meyers gate"}}, {"type": "node", "id": 2790203251, "lat": 59.919512, "lon": 10.759063, "tags": {"addr:city": "Oslo", "addr:housenumber": "85C", "addr:postcode": "0550", "addr:street": "Thorvald Meyers gate"}}, {"type": "node", "id": 2790203254, "lat": 59.919449, "lon": 10.75906, "tags": {"addr:city": "Oslo", "addr:housenumber": "85D", "addr:postcode": "0550", "addr:street": "Thorvald Meyers gate"}}, {"type": "node", "id": 2790203257, "lat": 59.919386, "lon": 10.759056, "tags": {"addr:city": "Oslo", "addr:housenumber": "85E", "addr:postcode": "0550", "addr:street": "Thorvald Meyers gate"}}, {"type": "node", "id": 2790203260, "lat": 59.919323, "lon": 10.759053, "tags": {"addr:city": "Oslo", "addr:housenumber": "85F", "addr:postcode": "0550", "addr:street": "Thorvald Meyers gate"}}, {"type": "node", "id": 2790203263, "lat": 59.919288, "lon": 10.759051, "tags": {"addr:city": "Oslo", "addr:housenumber": "85G", "addr:postcode": "0550", "addr:street": "Thorvald Meyers gate"}}, {"type": "node", "id": 2790203266, "lat": 59.91928, "lon": 10.758925, "tags": {"addr:city": "Oslo", "addr:housenumber": "85H", "addr:postcode": "0550", "addr:street": "Thorvald Meyers gate"}}, {"type": "node", "id": 2790203270, "lat": 59.919282, "lon": 10.7588, "tags": {"addr:city": "Oslo", "addr:housenumber": "85I", "addr:postcode": "0550", "addr:street": "Thorvald Meyers gate"}}, {"type": "node", "id": 2790203273, "lat": 59.919293, "lon": 10.758676, "tags": {"addr:city": "Oslo", "addr:housenumber": "85J", "addr:postcode": "0550", "addr:street": "Thorvald Meyers gate"}}, {"type": "node", "id": 2790203281, "lat": 59.919285, "lon": 10.75855, "tags": {"addr:city": "Oslo", "addr:housenumber": "85K", "addr:postcode": "0550", "addr:street": "Thorvald Meyers gate"}}, {"type": "node", "id": 2790203284, "lat": 59.919285, "lon": 10.758427, "tags": {"addr:city": "Oslo", "addr:housenumber": "85L", "addr:postcode": "0550", "addr:street": "Thorvald Meyers gate"}}, {"type": "node", "id": 2790203288, "lat": 59.919446, "lon": 10.75863, "tags": {"addr:city": "Oslo", "addr:housenumber": "85M", "addr:postcode": "0550", "addr:street": "Thorvald Meyers gate"}}, {"type": "node", "id": 2790203291, "lat": 59.919526, "lon": 10.758652, "tags": {"addr:city": "Oslo", "addr:housenumber": "85N", "addr:postcode": "0550", "addr:street": "Thorvald Meyers gate"}}, {"type": "node", "id": 2790203294, "lat": 59.919064, "lon": 10.759211, "tags": {"addr:city": "Oslo", "addr:housenumber": "87A", "addr:postcode": "0550", "addr:street": "Thorvald Meyers gate"}}, {"type": "node", "id": 2790203297, "lat": 59.918919, "lon": 10.759225, "tags": {"addr:city": "Oslo", "addr:housenumber": "87B", "addr:postcode": "0550", "addr:street": "Thorvald Meyers gate"}}, {"type": "node", "id": 2790203301, "lat": 59.9188, "lon": 10.759222, "tags": {"addr:city": "Oslo", "addr:housenumber": "89", "addr:postcode": "0550", "addr:street": "Thorvald Meyers gate"}}, {"type": "node", "id": 2790203312, "lat": 59.91924, "lon": 10.757868, "tags": {"addr:city": "Oslo", "addr:housenumber": "8A", "addr:postcode": "0550", "addr:street": "Leirfallsgata"}}, {"type": "node", "id": 2790203313, "lat": 59.919846, "lon": 10.754791, "tags": {"addr:city": "Oslo", "addr:housenumber": "8A", "addr:postcode": "0551", "addr:street": "Nedre gate"}}, {"type": "node", "id": 2790203332, "lat": 59.91928, "lon": 10.75787, "tags": {"addr:city": "Oslo", "addr:housenumber": "8B", "addr:postcode": "0550", "addr:street": "Leirfallsgata"}}, {"type": "node", "id": 2790203335, "lat": 59.919802, "lon": 10.754785, "tags": {"addr:city": "Oslo", "addr:housenumber": "8B", "addr:postcode": "0551", "addr:street": "Nedre gate"}}, {"type": "node", "id": 2790203350, "lat": 59.919293, "lon": 10.757996, "tags": {"addr:city": "Oslo", "addr:housenumber": "8C", "addr:postcode": "0550", "addr:street": "Leirfallsgata"}}, {"type": "node", "id": 2790203353, "lat": 59.919798, "lon": 10.755017, "tags": {"addr:city": "Oslo", "addr:housenumber": "8C", "addr:postcode": "0551", "addr:street": "Nedre gate"}}, {"type": "node", "id": 2790203365, "lat": 59.91924, "lon": 10.757945, "tags": {"addr:city": "Oslo", "addr:housenumber": "8D", "addr:postcode": "0550", "addr:street": "Leirfallsgata"}}, {"type": "node", "id": 2790203400, "lat": 59.91907, "lon": 10.758521, "tags": {"addr:city": "Oslo", "addr:housenumber": "9", "addr:postcode": "0550", "addr:street": "Leirfallsgata"}}, {"type": "node", "id": 2790203414, "lat": 59.919559, "lon": 10.756901, "tags": {"addr:city": "Oslo", "addr:housenumber": "9", "addr:postcode": "0550", "addr:street": "Torvbakkgata"}}, {"type": "node", "id": 2790244638, "lat": 59.912943, "lon": 10.751114, "tags": {"addr:city": "Oslo", "addr:housenumber": "6", "addr:postcode": "0184", "addr:street": "Nygata"}}, {"type": "node", "id": 2790246719, "lat": 59.918385, "lon": 10.759889, "tags": {"addr:city": "Oslo", "addr:housenumber": "2C", "addr:postcode": "0560", "addr:street": "Trondheimsveien"}}, {"type": "node", "id": 2791178169, "lat": 59.913372, "lon": 10.750605, "tags": {"addr:city": "Oslo", "addr:housenumber": "2", "addr:postcode": "0184", "addr:street": "Nygata"}}, {"type": "node", "id": 3138840290, "lat": 59.91164, "lon": 10.754635, "tags": {"addr:city": "Oslo", "addr:housenumber": "14A", "addr:postcode": "0185", "addr:street": "Biskop Gunnerus' gate"}}, {"type": "node", "id": 3138840296, "lat": 59.917095, "lon": 10.753032, "tags": {"addr:city": "Oslo", "addr:housenumber": "14A", "addr:postcode": "0183", "addr:street": "Osterhaus' gate"}}, {"type": "node", "id": 3138840300, "lat": 59.911354, "lon": 10.757218, "tags": {"addr:city": "Oslo", "addr:housenumber": "14B", "addr:postcode": "0185", "addr:street": "Biskop Gunnerus' gate"}}, {"type": "node", "id": 3138840306, "lat": 59.917132, "lon": 10.752962, "tags": {"addr:city": "Oslo", "addr:housenumber": "14B", "addr:postcode": "0183", "addr:street": "Osterhaus' gate"}}, {"type": "node", "id": 3138840313, "lat": 59.917185, "lon": 10.753223, "tags": {"addr:city": "Oslo", "addr:housenumber": "14C", "addr:postcode": "0183", "addr:street": "Osterhaus' gate"}}, {"type": "node", "id": 3138840597, "lat": 59.917929, "lon": 10.751126, "tags": {"addr:city": "Oslo", "addr:housenumber": "27", "addr:postcode": "0183", "addr:street": "Osterhaus' gate"}}, {"type": "node", "id": 3138850704, "lat": 59.915587, "lon": 10.755045, "tags": {"addr:city": "Oslo", "addr:housenumber": "1", "addr:postcode": "0183", "addr:street": "Osterhaus' gate"}}, {"type": "node", "id": 3138851335, "lat": 59.916597, "lon": 10.753795, "tags": {"addr:city": "Oslo", "addr:housenumber": "10", "addr:postcode": "0183", "addr:street": "Osterhaus' gate"}}, {"type": "node", "id": 3138851410, "lat": 59.916535, "lon": 10.753129, "tags": {"addr:city": "Oslo", "addr:housenumber": "11C", "addr:postcode": "0183", "addr:street": "Osterhaus' gate"}}, {"type": "node", "id": 3138851790, "lat": 59.916754, "lon": 10.753731, "tags": {"addr:city": "Oslo", "addr:housenumber": "12A", "addr:postcode": "0183", "addr:street": "Osterhaus' gate"}}, {"type": "node", "id": 3138851799, "lat": 59.916857, "lon": 10.753844, "tags": {"addr:city": "Oslo", "addr:housenumber": "12B", "addr:postcode": "0183", "addr:street": "Osterhaus' gate"}}, {"type": "node", "id": 3138851808, "lat": 59.916867, "lon": 10.753768, "tags": {"addr:city": "Oslo", "addr:housenumber": "12C", "addr:postcode": "0183", "addr:street": "Osterhaus' gate"}}, {"type": "node", "id": 3138851814, "lat": 59.916772, "lon": 10.753451, "tags": {"addr:city": "Oslo", "addr:housenumber": "12D", "addr:postcode": "0183", "addr:street": "Osterhaus' gate"}}, {"type": "node", "id": 3138851836, "lat": 59.917098, "lon": 10.752571, "tags": {"addr:city": "Oslo", "addr:housenumber": "13", "addr:postcode": "0183", "addr:street": "Osterhaus' gate"}}, {"type": "node", "id": 3138851866, "lat": 59.916249, "lon": 10.755109, "tags": {"addr:city": "Oslo", "addr:housenumber": "13C", "addr:postcode": "0183", "addr:street": "Calmeyers gate"}}, {"type": "node", "id": 3138851870, "lat": 59.91621, "lon": 10.755035, "tags": {"addr:city": "Oslo", "addr:housenumber": "13D", "addr:postcode": "0183", "addr:street": "Calmeyers gate"}}, {"type": "node", "id": 3138851873, "lat": 59.916155, "lon": 10.755082, "tags": {"addr:city": "Oslo", "addr:housenumber": "13E", "addr:postcode": "0183", "addr:street": "Calmeyers gate"}}, {"type": "node", "id": 3138851875, "lat": 59.91624, "lon": 10.755205, "tags": {"addr:city": "Oslo", "addr:housenumber": "13F", "addr:postcode": "0183", "addr:street": "Calmeyers gate"}}, {"type": "node", "id": 3138852098, "lat": 59.917259, "lon": 10.75288, "tags": {"addr:city": "Oslo", "addr:housenumber": "16A", "addr:postcode": "0183", "addr:street": "Osterhaus' gate"}}, {"type": "node", "id": 3138852104, "lat": 59.917342, "lon": 10.752759, "tags": {"addr:city": "Oslo", "addr:housenumber": "16B", "addr:postcode": "0183", "addr:street": "Osterhaus' gate"}}, {"type": "node", "id": 3138852110, "lat": 59.917469, "lon": 10.752605, "tags": {"addr:city": "Oslo", "addr:housenumber": "16C", "addr:postcode": "0183", "addr:street": "Osterhaus' gate"}}, {"type": "node", "id": 3138852114, "lat": 59.917548, "lon": 10.752752, "tags": {"addr:city": "Oslo", "addr:housenumber": "16D", "addr:postcode": "0183", "addr:street": "Osterhaus' gate"}}, {"type": "node", "id": 3138852116, "lat": 59.917636, "lon": 10.752917, "tags": {"addr:city": "Oslo", "addr:housenumber": "16E", "addr:postcode": "0183", "addr:street": "Osterhaus' gate"}}, {"type": "node", "id": 3138852117, "lat": 59.917704, "lon": 10.753225, "tags": {"addr:city": "Oslo", "addr:housenumber": "16G", "addr:postcode": "0183", "addr:street": "Osterhaus' gate"}}, {"type": "node", "id": 3138852118, "lat": 59.917706, "lon": 10.753064, "tags": {"addr:city": "Oslo", "addr:housenumber": "16F", "addr:postcode": "0183", "addr:street": "Osterhaus' gate"}}, {"type": "node", "id": 3138852227, "lat": 59.912885, "lon": 10.752202, "tags": {"addr:city": "Oslo", "addr:housenumber": "1C", "addr:postcode": "0050", "addr:street": "Stenersgata"}}, {"type": "node", "id": 3138852544, "lat": 59.912606, "lon": 10.751543, "tags": {"addr:city": "Oslo", "addr:housenumber": "1A", "addr:postcode": "0050", "addr:street": "Stenersgata"}}, {"type": "node", "id": 3138852560, "lat": 59.91275, "lon": 10.751569, "tags": {"addr:city": "Oslo", "addr:housenumber": "1B", "addr:postcode": "0050", "addr:street": "Stenersgata"}}, {"type": "node", "id": 3138852605, "lat": 59.9157, "lon": 10.755364, "tags": {"addr:city": "Oslo", "addr:housenumber": "2B", "addr:postcode": "0183", "addr:street": "Osterhaus' gate"}}, {"type": "node", "id": 3138852834, "lat": 59.913019, "lon": 10.752907, "tags": {"addr:city": "Oslo", "addr:housenumber": "1D", "addr:postcode": "0050", "addr:street": "Stenersgata"}}, {"type": "node", "id": 3138852838, "lat": 59.91236, "lon": 10.753212, "tags": {"addr:city": "Oslo", "addr:housenumber": "1E", "addr:postcode": "0050", "addr:street": "Stenersgata"}}, {"type": "node", "id": 3138852840, "lat": 59.912411, "lon": 10.752052, "tags": {"addr:city": "Oslo", "addr:housenumber": "1F", "addr:postcode": "0050", "addr:street": "Stenersgata"}}, {"type": "node", "id": 3138853246, "lat": 59.9174, "lon": 10.751714, "tags": {"addr:city": "Oslo", "addr:housenumber": "21B", "addr:postcode": "0183", "addr:street": "Osterhaus' gate"}}, {"type": "node", "id": 3138853248, "lat": 59.917479, "lon": 10.751732, "tags": {"addr:city": "Oslo", "addr:housenumber": "21C", "addr:postcode": "0183", "addr:street": "Osterhaus' gate"}}, {"type": "node", "id": 3138853251, "lat": 59.917526, "lon": 10.751659, "tags": {"addr:city": "Oslo", "addr:housenumber": "21D", "addr:postcode": "0183", "addr:street": "Osterhaus' gate"}}, {"type": "node", "id": 3138853254, "lat": 59.917513, "lon": 10.751537, "tags": {"addr:city": "Oslo", "addr:housenumber": "21E", "addr:postcode": "0183", "addr:street": "Osterhaus' gate"}}, {"type": "node", "id": 3138853303, "lat": 59.917681, "lon": 10.751525, "tags": {"addr:city": "Oslo", "addr:housenumber": "23", "addr:postcode": "0183", "addr:street": "Osterhaus' gate"}}, {"type": "node", "id": 3138853451, "lat": 59.91553, "lon": 10.754595, "tags": {"addr:city": "Oslo", "addr:housenumber": "3D", "addr:postcode": "0183", "addr:street": "Osterhaus' gate"}}, {"type": "node", "id": 3138853459, "lat": 59.915611, "lon": 10.754546, "tags": {"addr:city": "Oslo", "addr:housenumber": "3C", "addr:postcode": "0183", "addr:street": "Osterhaus' gate"}}, {"type": "node", "id": 3138853886, "lat": 59.91781, "lon": 10.751335, "tags": {"addr:city": "Oslo", "addr:housenumber": "25", "addr:postcode": "0183", "addr:street": "Osterhaus' gate"}}, {"type": "node", "id": 3138854502, "lat": 59.915707, "lon": 10.755429, "tags": {"addr:city": "Oslo", "addr:housenumber": "2C", "addr:postcode": "0183", "addr:street": "Osterhaus' gate"}}, {"type": "node", "id": 3138854522, "lat": 59.915747, "lon": 10.755361, "tags": {"addr:city": "Oslo", "addr:housenumber": "2D", "addr:postcode": "0183", "addr:street": "Osterhaus' gate"}}, {"type": "node", "id": 3138855336, "lat": 59.915638, "lon": 10.755332, "tags": {"addr:city": "Oslo", "addr:housenumber": "2A", "addr:postcode": "0183", "addr:street": "Osterhaus' gate"}}, {"type": "node", "id": 3138855346, "lat": 59.91571, "lon": 10.755211, "tags": {"addr:city": "Oslo", "addr:housenumber": "2E", "addr:postcode": "0183", "addr:street": "Osterhaus' gate"}}, {"type": "node", "id": 3138855751, "lat": 59.917048, "lon": 10.753196, "tags": {"addr:city": "Oslo", "addr:housenumber": "30", "addr:postcode": "0183", "addr:street": "Torggata"}}, {"type": "node", "id": 3138856899, "lat": 59.915681, "lon": 10.754728, "tags": {"addr:city": "Oslo", "addr:housenumber": "3B", "addr:postcode": "0183", "addr:street": "Osterhaus' gate"}}, {"type": "node", "id": 3138856917, "lat": 59.915626, "lon": 10.754815, "tags": {"addr:city": "Oslo", "addr:housenumber": "3A", "addr:postcode": "0183", "addr:street": "Osterhaus' gate"}}, {"type": "node", "id": 3138857514, "lat": 59.915838, "lon": 10.755023, "tags": {"addr:city": "Oslo", "addr:housenumber": "4A", "addr:postcode": "0183", "addr:street": "Osterhaus' gate"}}, {"type": "node", "id": 3138857830, "lat": 59.915994, "lon": 10.755496, "tags": {"addr:city": "Oslo", "addr:housenumber": "4B", "addr:postcode": "0183", "addr:street": "Osterhaus' gate"}}, {"type": "node", "id": 3138858111, "lat": 59.915791, "lon": 10.754519, "tags": {"addr:city": "Oslo", "addr:housenumber": "5A", "addr:postcode": "0183", "addr:street": "Osterhaus' gate"}}, {"type": "node", "id": 3138858125, "lat": 59.915684, "lon": 10.754496, "tags": {"addr:city": "Oslo", "addr:housenumber": "5B", "addr:postcode": "0183", "addr:street": "Osterhaus' gate"}}, {"type": "node", "id": 3138858138, "lat": 59.915721, "lon": 10.754391, "tags": {"addr:city": "Oslo", "addr:housenumber": "5C", "addr:postcode": "0183", "addr:street": "Osterhaus' gate"}}, {"type": "node", "id": 3138858152, "lat": 59.912002, "lon": 10.752388, "tags": {"addr:city": "Oslo", "addr:housenumber": "6", "addr:postcode": "0155", "addr:street": "Biskop Gunnerus' gate"}}, {"type": "node", "id": 3138858193, "lat": 59.91616, "lon": 10.754446, "tags": {"addr:city": "Oslo", "addr:housenumber": "6E", "addr:postcode": "0183", "addr:street": "Osterhaus' gate"}}, {"type": "node", "id": 3138858197, "lat": 59.912465, "lon": 10.753432, "tags": {"addr:city": "Oslo", "addr:housenumber": "7", "addr:postcode": "0155", "addr:street": "Biskop Gunnerus' gate"}}, {"type": "node", "id": 3138858569, "lat": 59.916019, "lon": 10.754861, "tags": {"addr:city": "Oslo", "addr:housenumber": "6A", "addr:postcode": "0183", "addr:street": "Osterhaus' gate"}}, {"type": "node", "id": 3138858594, "lat": 59.916094, "lon": 10.75456, "tags": {"addr:city": "Oslo", "addr:housenumber": "6D", "addr:postcode": "0183", "addr:street": "Osterhaus' gate"}}, {"type": "node", "id": 3138858599, "lat": 59.916208, "lon": 10.754388, "tags": {"addr:city": "Oslo", "addr:housenumber": "6F", "addr:postcode": "0183", "addr:street": "Osterhaus' gate"}}, {"type": "node", "id": 3138858990, "lat": 59.915866, "lon": 10.754423, "tags": {"addr:city": "Oslo", "addr:housenumber": "7A", "addr:postcode": "0183", "addr:street": "Osterhaus' gate"}}, {"type": "node", "id": 3138859003, "lat": 59.916041, "lon": 10.753978, "tags": {"addr:city": "Oslo", "addr:housenumber": "7B", "addr:postcode": "0183", "addr:street": "Osterhaus' gate"}}, {"type": "node", "id": 3138859009, "lat": 59.916395, "lon": 10.753728, "tags": {"addr:city": "Oslo", "addr:housenumber": "9A", "addr:postcode": "0183", "addr:street": "Osterhaus' gate"}}, {"type": "node", "id": 3138859079, "lat": 59.916451, "lon": 10.754232, "tags": {"addr:city": "Oslo", "addr:housenumber": "8A", "addr:postcode": "0183", "addr:street": "Osterhaus' gate"}}, {"type": "node", "id": 3138859089, "lat": 59.916497, "lon": 10.754145, "tags": {"addr:city": "Oslo", "addr:housenumber": "8B", "addr:postcode": "0183", "addr:street": "Osterhaus' gate"}}, {"type": "node", "id": 3138859157, "lat": 59.916396, "lon": 10.753639, "tags": {"addr:city": "Oslo", "addr:housenumber": "9B", "addr:postcode": "0183", "addr:street": "Osterhaus' gate"}}, {"type": "node", "id": 3138859167, "lat": 59.916486, "lon": 10.75359, "tags": {"addr:city": "Oslo", "addr:housenumber": "9D", "addr:postcode": "0183", "addr:street": "Osterhaus' gate"}}, {"type": "node", "id": 3138859175, "lat": 59.916358, "lon": 10.753335, "tags": {"addr:city": "Oslo", "addr:housenumber": "9C", "addr:postcode": "0183", "addr:street": "Osterhaus' gate"}}, {"type": "node", "id": 3138859181, "lat": 59.916528, "lon": 10.753521, "tags": {"addr:city": "Oslo", "addr:housenumber": "11A", "addr:postcode": "0183", "addr:street": "Osterhaus' gate"}}, {"type": "node", "id": 3556796241, "lat": 59.913007, "lon": 10.751564, "tags": {"addr:city": "Oslo", "addr:housenumber": "2B", "addr:postcode": "0184", "addr:street": "Stenersgata"}}, {"type": "node", "id": 3556796244, "lat": 59.91315, "lon": 10.751443, "tags": {"addr:city": "Oslo", "addr:housenumber": "2C", "addr:postcode": "0184", "addr:street": "Stenersgata"}}, {"type": "node", "id": 3556796246, "lat": 59.913403, "lon": 10.751398, "tags": {"addr:city": "Oslo", "addr:housenumber": "2D", "addr:postcode": "0184", "addr:street": "Stenersgata"}}, {"type": "node", "id": 3596884596, "lat": 59.915047, "lon": 10.757786, "tags": {"addr:city": "Oslo", "addr:housenumber": "5", "addr:postcode": "0186", "addr:street": "Hausmanns gate"}}, {"type": "node", "id": 3813283276, "lat": 59.91499, "lon": 10.755769, "tags": {"addr:city": "Oslo", "addr:housenumber": "36D", "addr:postcode": "0182", "addr:street": "Storgata"}}, {"type": "node", "id": 3813283277, "lat": 59.914995, "lon": 10.756576, "tags": {"addr:city": "Oslo", "addr:housenumber": "36E", "addr:postcode": "0182", "addr:street": "Storgata"}}, {"type": "node", "id": 3813283278, "lat": 59.915268, "lon": 10.756513, "tags": {"addr:city": "Oslo", "addr:housenumber": "36F", "addr:postcode": "0182", "addr:street": "Storgata"}}, {"type": "node", "id": 3813283279, "lat": 59.915307, "lon": 10.755685, "tags": {"addr:city": "Oslo", "addr:housenumber": "36G", "addr:postcode": "0182", "addr:street": "Storgata"}}, {"type": "node", "id": 3813283280, "lat": 59.91522, "lon": 10.756067, "tags": {"addr:city": "Oslo", "addr:housenumber": "36H", "addr:postcode": "0182", "addr:street": "Storgata"}}, {"type": "node", "id": 3813283281, "lat": 59.915343, "lon": 10.756195, "tags": {"addr:city": "Oslo", "addr:housenumber": "36J", "addr:postcode": "0182", "addr:street": "Storgata"}}, {"type": "node", "id": 3813283282, "lat": 59.915736, "lon": 10.756876, "tags": {"addr:city": "Oslo", "addr:housenumber": "11", "addr:postcode": "0182", "addr:street": "Hausmanns gate"}}, {"type": "node", "id": 3813283322, "lat": 59.916447, "lon": 10.750225, "tags": {"addr:city": "Oslo", "addr:housenumber": "4", "addr:postcode": "0183", "addr:street": "Mariboes gate"}}, {"type": "node", "id": 3813303294, "lat": 59.918188, "lon": 10.753036, "tags": {"addr:city": "Oslo", "addr:housenumber": "20", "addr:postcode": "0182", "addr:street": "Mariboes gate"}}, {"type": "node", "id": 4157612825, "lat": 59.916006, "lon": 10.750023, "tags": {"addr:city": "Oslo", "addr:housenumber": "1", "addr:postcode": "0183", "addr:street": "Mariboes gate"}}, {"type": "node", "id": 4157612839, "lat": 59.91576, "lon": 10.750454, "tags": {"addr:city": "Oslo", "addr:housenumber": "13", "addr:postcode": "0181", "addr:street": "Hammersborggata"}}, {"type": "node", "id": 4157612880, "lat": 59.916069, "lon": 10.750207, "tags": {"addr:city": "Oslo", "addr:housenumber": "3", "addr:postcode": "0183", "addr:street": "Mariboes gate"}}, {"type": "node", "id": 4157615220, "lat": 59.916145, "lon": 10.750313, "tags": {"addr:city": "Oslo", "addr:housenumber": "5A", "addr:postcode": "0183", "addr:street": "Mariboes gate"}}, {"type": "node", "id": 4157615223, "lat": 59.916235, "lon": 10.750323, "tags": {"addr:city": "Oslo", "addr:housenumber": "5B", "addr:postcode": "0183", "addr:street": "Mariboes gate"}}, {"type": "node", "id": 4844742255, "lat": 59.914975, "lon": 10.751099, "tags": {"addr:city": "Oslo", "addr:housenumber": "2", "addr:postcode": "0181", "addr:street": "Calmeyers gate"}}, {"type": "node", "id": 4844742279, "lat": 59.915179, "lon": 10.751924, "tags": {"addr:city": "Oslo", "addr:housenumber": "11", "addr:postcode": "0181", "addr:street": "Hammersborggata"}}, {"type": "node", "id": 4844742309, "lat": 59.917841, "lon": 10.7533, "tags": {"addr:city": "Oslo", "addr:housenumber": "19", "addr:postcode": "0182", "addr:street": "Mariboes gate"}}, {"type": "node", "id": 4844749344, "lat": 59.914933, "lon": 10.750516, "tags": {"addr:city": "Oslo", "addr:housenumber": "13", "addr:postcode": "0181", "addr:street": "Youngs gate"}}, {"type": "node", "id": 4844757221, "lat": 59.916466, "lon": 10.753348, "tags": {"addr:city": "Oslo", "addr:housenumber": "11B", "addr:postcode": "0183", "addr:street": "Osterhaus' gate"}}, {"type": "node", "id": 4844757222, "lat": 59.916563, "lon": 10.753301, "tags": {"addr:city": "Oslo", "addr:housenumber": "11D", "addr:postcode": "0183", "addr:street": "Osterhaus' gate"}}, {"type": "node", "id": 4844757251, "lat": 59.916183, "lon": 10.751991, "tags": {"addr:city": "Oslo", "addr:housenumber": "17B", "addr:postcode": "0183", "addr:street": "Torggata"}}, {"type": "node", "id": 5031725927, "lat": 59.915815, "lon": 10.75214, "tags": {"addr:city": "Oslo", "addr:housenumber": "11", "addr:postcode": "0183", "addr:street": "Bernt Ankers gate"}}, {"type": "node", "id": 5031725928, "lat": 59.916472, "lon": 10.751166, "tags": {"addr:city": "Oslo", "addr:housenumber": "27", "addr:postcode": "0183", "addr:street": "Bernt Ankers gate"}}, {"type": "node", "id": 5031725929, "lat": 59.91647, "lon": 10.750946, "tags": {"addr:city": "Oslo", "addr:housenumber": "31", "addr:postcode": "0183", "addr:street": "Bernt Ankers gate"}}, {"type": "node", "id": 5031725930, "lat": 59.916558, "lon": 10.75087, "tags": {"addr:city": "Oslo", "addr:housenumber": "33", "addr:postcode": "0183", "addr:street": "Bernt Ankers gate"}}, {"type": "node", "id": 5031725931, "lat": 59.916876, "lon": 10.750509, "tags": {"addr:city": "Oslo", "addr:housenumber": "35", "addr:postcode": "0183", "addr:street": "Bernt Ankers gate"}}, {"type": "node", "id": 5031725932, "lat": 59.917023, "lon": 10.75027, "tags": {"addr:city": "Oslo", "addr:housenumber": "37", "addr:postcode": "0183", "addr:street": "Bernt Ankers gate"}}, {"type": "node", "id": 5031725977, "lat": 59.916902, "lon": 10.750051, "tags": {"addr:city": "Oslo", "addr:housenumber": "32A", "addr:postcode": "0179", "addr:street": "M\u00f8llergata"}}, {"type": "node", "id": 5031726122, "lat": 59.916339, "lon": 10.751205, "tags": {"addr:city": "Oslo", "addr:housenumber": "23", "addr:postcode": "0183", "addr:street": "Bernt Ankers gate"}}, {"type": "node", "id": 5031726123, "lat": 59.916423, "lon": 10.751258, "tags": {"addr:city": "Oslo", "addr:housenumber": "25", "addr:postcode": "0183", "addr:street": "Bernt Ankers gate"}}, {"type": "node", "id": 5031743722, "lat": 59.915908, "lon": 10.751991, "tags": {"addr:city": "Oslo", "addr:housenumber": "13", "addr:postcode": "0183", "addr:street": "Bernt Ankers gate"}}, {"type": "node", "id": 5031743723, "lat": 59.91599, "lon": 10.751849, "tags": {"addr:city": "Oslo", "addr:housenumber": "15", "addr:postcode": "0183", "addr:street": "Bernt Ankers gate"}}, {"type": "node", "id": 5031743724, "lat": 59.916528, "lon": 10.751083, "tags": {"addr:city": "Oslo", "addr:housenumber": "29", "addr:postcode": "0183", "addr:street": "Bernt Ankers gate"}}, {"type": "node", "id": 5031743725, "lat": 59.91563, "lon": 10.752377, "tags": {"addr:city": "Oslo", "addr:housenumber": "9", "addr:postcode": "0183", "addr:street": "Bernt Ankers gate"}}, {"type": "node", "id": 5031743821, "lat": 59.916348, "lon": 10.751372, "tags": {"addr:city": "Oslo", "addr:housenumber": "21", "addr:postcode": "0183", "addr:street": "Bernt Ankers gate"}}, {"type": "node", "id": 5652380049, "lat": 59.91506, "lon": 10.753123, "tags": {"addr:city": "Oslo", "addr:housenumber": "3", "addr:postcode": "0183", "addr:street": "Bernt Ankers gate"}}, {"type": "node", "id": 5652425126, "lat": 59.914932, "lon": 10.753288, "tags": {"addr:city": "Oslo", "addr:housenumber": "1", "addr:postcode": "0183", "addr:street": "Bernt Ankers gate"}}, {"type": "node", "id": 5652425160, "lat": 59.918952, "lon": 10.757475, "tags": {"addr:city": "Oslo", "addr:housenumber": "58C", "addr:postcode": "0550", "addr:street": "Markveien"}}, {"type": "node", "id": 6136459993, "lat": 59.9181, "lon": 10.751547, "tags": {"addr:city": "Oslo", "addr:housenumber": "22", "addr:postcode": "0183", "addr:street": "Osterhaus' gate"}}, {"type": "node", "id": 6136460086, "lat": 59.913353, "lon": 10.759578, "tags": {"addr:city": "Oslo", "addr:housenumber": "4", "addr:postcode": "0188", "addr:street": "Gr\u00f8nland"}}, {"type": "node", "id": 6136460135, "lat": 59.915595, "lon": 10.753599, "tags": {"addr:city": "Oslo", "addr:housenumber": "6", "addr:postcode": "0183", "addr:street": "Ebbells gate"}}, {"type": "node", "id": 6136460178, "lat": 59.917308, "lon": 10.751131, "tags": {"addr:city": "Oslo", "addr:housenumber": "14D", "addr:postcode": "0183", "addr:street": "Mariboes gate"}}, {"type": "node", "id": 6136460179, "lat": 59.917309, "lon": 10.75102, "tags": {"addr:city": "Oslo", "addr:housenumber": "14C", "addr:postcode": "0183", "addr:street": "Mariboes gate"}}, {"type": "node", "id": 6136460180, "lat": 59.917267, "lon": 10.751013, "tags": {"addr:city": "Oslo", "addr:housenumber": "14B", "addr:postcode": "0183", "addr:street": "Mariboes gate"}}, {"type": "node", "id": 6136460181, "lat": 59.91736, "lon": 10.751336, "tags": {"addr:city": "Oslo", "addr:housenumber": "14G", "addr:postcode": "0183", "addr:street": "Mariboes gate"}}, {"type": "node", "id": 6136460182, "lat": 59.917224, "lon": 10.751484, "tags": {"addr:city": "Oslo", "addr:housenumber": "14E", "addr:postcode": "0183", "addr:street": "Mariboes gate"}}, {"type": "node", "id": 6136460183, "lat": 59.917292, "lon": 10.751613, "tags": {"addr:city": "Oslo", "addr:housenumber": "14F", "addr:postcode": "0183", "addr:street": "Mariboes gate"}}, {"type": "node", "id": 6136460972, "lat": 59.914743, "lon": 10.751184, "tags": {"addr:city": "Oslo", "addr:housenumber": "1", "addr:postcode": "0181", "addr:street": "Calmeyers gate"}}, {"type": "node", "id": 6136460994, "lat": 59.914818, "lon": 10.751876, "tags": {"addr:city": "Oslo", "addr:housenumber": "6", "addr:postcode": "0181", "addr:street": "Hammersborggata"}}, {"type": "node", "id": 6136460995, "lat": 59.915013, "lon": 10.751613, "tags": {"addr:city": "Oslo", "addr:housenumber": "8", "addr:postcode": "0181", "addr:street": "Hammersborggata"}}, {"type": "node", "id": 6136460996, "lat": 59.914243, "lon": 10.752016, "tags": {"addr:city": "Oslo", "addr:housenumber": "29", "addr:postcode": "0184", "addr:street": "Storgata"}}, {"type": "node", "id": 6136460997, "lat": 59.914549, "lon": 10.75224, "tags": {"addr:city": "Oslo", "addr:housenumber": "4", "addr:postcode": "0181", "addr:street": "Hammersborggata"}}, {"type": "node", "id": 6136462788, "lat": 59.91829, "lon": 10.751467, "tags": {"addr:city": "Oslo", "addr:housenumber": "14", "addr:postcode": "0183", "addr:street": "Jess Carlsens gate"}}, {"type": "node", "id": 6136463008, "lat": 59.916621, "lon": 10.75044, "tags": {"addr:city": "Oslo", "addr:housenumber": "6", "addr:postcode": "0183", "addr:street": "Mariboes gate"}}, {"type": "node", "id": 6136463016, "lat": 59.915262, "lon": 10.750276, "tags": {"addr:city": "Oslo", "addr:housenumber": "13C", "addr:postcode": "0181", "addr:street": "Torggata"}}, {"type": "node", "id": 6136463017, "lat": 59.915163, "lon": 10.750261, "tags": {"addr:city": "Oslo", "addr:housenumber": "13B", "addr:postcode": "0181", "addr:street": "Torggata"}}, {"type": "node", "id": 6136463018, "lat": 59.915011, "lon": 10.750534, "tags": {"addr:city": "Oslo", "addr:housenumber": "15", "addr:postcode": "0181", "addr:street": "Youngs gate"}}, {"type": "node", "id": 6136463019, "lat": 59.914988, "lon": 10.750392, "tags": {"addr:city": "Oslo", "addr:housenumber": "17", "addr:postcode": "0181", "addr:street": "Youngs gate"}}, {"type": "node", "id": 6136463020, "lat": 59.915117, "lon": 10.750032, "tags": {"addr:city": "Oslo", "addr:housenumber": "19", "addr:postcode": "0181", "addr:street": "Youngs gate"}}, {"type": "node", "id": 6136463021, "lat": 59.915571, "lon": 10.750276, "tags": {"addr:city": "Oslo", "addr:housenumber": "16", "addr:postcode": "0181", "addr:street": "Hammersborggata"}}, {"type": "node", "id": 6136463022, "lat": 59.915518, "lon": 10.750387, "tags": {"addr:city": "Oslo", "addr:housenumber": "14", "addr:postcode": "0181", "addr:street": "Hammersborggata"}}, {"type": "node", "id": 6136463023, "lat": 59.915608, "lon": 10.750178, "tags": {"addr:city": "Oslo", "addr:housenumber": "18", "addr:postcode": "0181", "addr:street": "Hammersborggata"}}, {"type": "node", "id": 6136463024, "lat": 59.915658, "lon": 10.750048, "tags": {"addr:city": "Oslo", "addr:housenumber": "20", "addr:postcode": "0181", "addr:street": "Hammersborggata"}}, {"type": "node", "id": 6136463221, "lat": 59.916273, "lon": 10.750345, "tags": {"addr:city": "Oslo", "addr:housenumber": "5C", "addr:postcode": "0183", "addr:street": "Mariboes gate"}}, {"type": "node", "id": 6136463523, "lat": 59.916335, "lon": 10.753833, "tags": {"addr:city": "Oslo", "addr:housenumber": "7C", "addr:postcode": "0183", "addr:street": "Osterhaus' gate"}}, {"type": "node", "id": 6136463549, "lat": 59.917375, "lon": 10.751668, "tags": {"addr:city": "Oslo", "addr:housenumber": "21A", "addr:postcode": "0183", "addr:street": "Osterhaus' gate"}}, {"type": "node", "id": 6211355261, "lat": 59.912588, "lon": 10.759018, "tags": {"addr:city": "Oslo", "addr:housenumber": "2", "addr:postcode": "0188", "addr:street": "Smalgangen"}}, {"type": "node", "id": 6211356258, "lat": 59.915926, "lon": 10.751005, "tags": {"addr:city": "Oslo", "addr:housenumber": "16B", "addr:postcode": "0181", "addr:street": "Torggata"}}, {"type": "node", "id": 6282637484, "lat": 59.9165479, "lon": 10.7566978, "tags": {"addr:city": "Oslo", "addr:housenumber": "53A", "addr:postcode": "0182", "addr:street": "Storgata"}}, {"type": "node", "id": 6341310782, "lat": 59.910742, "lon": 10.759513, "tags": {"addr:city": "Oslo", "addr:housenumber": "15B", "addr:postcode": "0191", "addr:street": "Schweigaards gate"}}, {"type": "node", "id": 6548811065, "lat": 59.918803, "lon": 10.757668, "tags": {"addr:city": "Oslo", "addr:housenumber": "60B", "addr:postcode": "0550", "addr:street": "Markveien"}}, {"type": "node", "id": 6548811066, "lat": 59.918732, "lon": 10.757503, "tags": {"addr:city": "Oslo", "addr:housenumber": "60C", "addr:postcode": "0550", "addr:street": "Markveien"}}, {"type": "node", "id": 6618334600, "lat": 59.915849, "lon": 10.750834, "tags": {"addr:city": "Oslo", "addr:housenumber": "16A", "addr:postcode": "0181", "addr:street": "Torggata"}}, {"type": "node", "id": 6618518921, "lat": 59.913542, "lon": 10.752809, "tags": {"addr:city": "Oslo", "addr:housenumber": "3", "addr:postcode": "0184", "addr:street": "Lybekkergata"}}, {"type": "node", "id": 6801907616, "lat": 59.916367, "lon": 10.750582, "tags": {"addr:city": "Oslo", "addr:housenumber": "11", "addr:postcode": "0183", "addr:street": "Badstugata"}}, {"type": "node", "id": 6801907617, "lat": 59.916229, "lon": 10.750888, "tags": {"addr:city": "Oslo", "addr:housenumber": "9", "addr:postcode": "0183", "addr:street": "Badstugata"}}, {"type": "node", "id": 6801907618, "lat": 59.916039, "lon": 10.751331, "tags": {"addr:city": "Oslo", "addr:housenumber": "1", "addr:postcode": "0181", "addr:street": "Badstugata"}}, {"type": "node", "id": 6801907620, "lat": 59.916093, "lon": 10.751196, "tags": {"addr:city": "Oslo", "addr:housenumber": "3", "addr:postcode": "0181", "addr:street": "Badstugata"}}, {"type": "node", "id": 6801907675, "lat": 59.913911, "lon": 10.756101, "tags": {"addr:city": "Oslo", "addr:housenumber": "9", "addr:postcode": "0186", "addr:street": "Brugata"}}, {"type": "node", "id": 7205115300, "lat": 59.916959, "lon": 10.750948, "tags": {"addr:city": "Oslo", "addr:housenumber": "10", "addr:postcode": "0183", "addr:street": "Mariboes gate"}}, {"type": "node", "id": 7205115301, "lat": 59.917042, "lon": 10.751112, "tags": {"addr:city": "Oslo", "addr:housenumber": "12", "addr:postcode": "0183", "addr:street": "Mariboes gate"}}, {"type": "node", "id": 7205115344, "lat": 59.91631, "lon": 10.752933, "tags": {"addr:city": "Oslo", "addr:housenumber": "21C", "addr:postcode": "0183", "addr:street": "Torggata"}}, {"type": "node", "id": 7205115346, "lat": 59.915813, "lon": 10.753013, "tags": {"addr:city": "Oslo", "addr:housenumber": "6A", "addr:postcode": "0183", "addr:street": "Calmeyers gate"}}, {"type": "node", "id": 7205115347, "lat": 59.915845, "lon": 10.753102, "tags": {"addr:city": "Oslo", "addr:housenumber": "6C", "addr:postcode": "0183", "addr:street": "Calmeyers gate"}}, {"type": "node", "id": 7722868224, "lat": 59.91893, "lon": 10.750821, "tags": {"addr:city": "Oslo", "addr:housenumber": "55", "addr:postcode": "0179", "addr:street": "M\u00f8llergata"}}, {"type": "node", "id": 7722868225, "lat": 59.918978, "lon": 10.750969, "tags": {"addr:city": "Oslo", "addr:housenumber": "57", "addr:postcode": "0179", "addr:street": "M\u00f8llergata"}}, {"type": "node", "id": 7911583912, "lat": 59.917126, "lon": 10.750093, "tags": {"addr:city": "Oslo", "addr:housenumber": "39", "addr:postcode": "0183", "addr:street": "Bernt Ankers gate"}}, {"type": "node", "id": 8741102168, "lat": 59.916844, "lon": 10.758963, "tags": {"addr:city": "Oslo", "addr:housenumber": "40", "addr:postcode": "0182", "addr:street": "Storgata"}}, {"type": "node", "id": 9419810772, "lat": 59.914342, "lon": 10.754067, "tags": {"addr:city": "Oslo", "addr:housenumber": "3A", "addr:postcode": "0186", "addr:street": "Brugata"}}, {"type": "node", "id": 9419810773, "lat": 59.914136, "lon": 10.754074, "tags": {"addr:city": "Oslo", "addr:housenumber": "6", "addr:postcode": "0186", "addr:street": "Brugata"}}, {"type": "node", "id": 9419810774, "lat": 59.913825, "lon": 10.756473, "tags": {"addr:city": "Oslo", "addr:housenumber": "11", "addr:postcode": "0186", "addr:street": "Brugata"}}, {"type": "node", "id": 9579866807, "lat": 59.915724, "lon": 10.759578, "tags": {"addr:city": "Oslo", "addr:housenumber": "30", "addr:postcode": "0186", "addr:street": "Christian Krohgs gate"}}, {"type": "node", "id": 9740481416, "lat": 59.917834, "lon": 10.750155, "tags": {"addr:city": "Oslo", "addr:housenumber": "47G", "addr:postcode": "0179", "addr:street": "M\u00f8llergata"}}, {"type": "node", "id": 9740542848, "lat": 59.917864, "lon": 10.750182, "tags": {"addr:city": "Oslo", "addr:housenumber": "47H", "addr:postcode": "0179", "addr:street": "M\u00f8llergata"}}, {"type": "node", "id": 9819590373, "lat": 59.919148, "lon": 10.751978, "tags": {"addr:city": "Oslo", "addr:housenumber": "34", "addr:postcode": "0182", "addr:street": "Hausmanns gate"}}, {"type": "node", "id": 11115458168, "lat": 59.915776, "lon": 10.7507, "tags": {"addr:city": "Oslo", "addr:housenumber": "14", "addr:postcode": "0181", "addr:street": "Torggata"}}, {"type": "node", "id": 11625942089, "lat": 59.915321, "lon": 10.750028, "tags": {"addr:city": "Oslo", "addr:housenumber": "12B", "addr:postcode": "0181", "addr:street": "Torggata"}}, {"type": "node", "id": 11625942093, "lat": 59.91538, "lon": 10.750146, "tags": {"addr:city": "Oslo", "addr:housenumber": "12C", "addr:postcode": "0181", "addr:street": "Torggata"}}, {"type": "node", "id": 12054360355, "lat": 59.913703, "lon": 10.759128, "tags": {"addr:city": "Oslo", "addr:housenumber": "2D", "addr:postcode": "0188", "addr:street": "Gr\u00f8nland"}}, {"type": "node", "id": 12252186415, "lat": 59.919826, "lon": 10.758133, "tags": {"addr:city": "Oslo", "addr:housenumber": "25E", "addr:postcode": "0551", "addr:street": "Korsgata"}}, {"type": "node", "id": 12252186416, "lat": 59.919837, "lon": 10.758114, "tags": {"addr:city": "Oslo", "addr:housenumber": "25F", "addr:postcode": "0551", "addr:street": "Korsgata"}}, {"type": "node", "id": 12506343254, "lat": 59.914369, "lon": 10.754727, "tags": {"addr:city": "Oslo", "addr:housenumber": "3D", "addr:postcode": "0186", "addr:street": "Brugata"}}, {"type": "node", "id": 12506343255, "lat": 59.914518, "lon": 10.754853, "tags": {"addr:city": "Oslo", "addr:housenumber": "3E", "addr:postcode": "0182", "addr:street": "Brugata"}}, {"type": "node", "id": 12506343257, "lat": 59.9143, "lon": 10.755051, "tags": {"addr:city": "Oslo", "addr:housenumber": "3F", "addr:postcode": "0186", "addr:street": "Brugata"}}, {"type": "node", "id": 12588993849, "lat": 59.916137, "lon": 10.75381, "tags": {"addr:city": "Oslo", "addr:housenumber": "8F", "addr:postcode": "0183", "addr:street": "Calmeyers gate"}}, {"type": "node", "id": 12588993859, "lat": 59.91594, "lon": 10.753295, "tags": {"addr:city": "Oslo", "addr:housenumber": "8A", "addr:postcode": "0183", "addr:street": "Calmeyers gate"}}, {"type": "node", "id": 12666142668, "lat": 59.913333, "lon": 10.754293, "tags": {"addr:city": "Oslo", "addr:housenumber": "7", "addr:postcode": "0184", "addr:street": "Stenersgata"}}, {"type": "node", "id": 12666142669, "lat": 59.91334, "lon": 10.755032, "tags": {"addr:city": "Oslo", "addr:housenumber": "11", "addr:postcode": "0184", "addr:street": "Stenersgata"}}, {"type": "node", "id": 12666142670, "lat": 59.913281, "lon": 10.755195, "tags": {"addr:city": "Oslo", "addr:housenumber": "13", "addr:postcode": "0184", "addr:street": "Stenersgata"}}, {"type": "node", "id": 12666145017, "lat": 59.91309, "lon": 10.753919, "tags": {"addr:city": "Oslo", "addr:housenumber": "5", "addr:postcode": "0184", "addr:street": "Stenersgata"}}, {"type": "node", "id": 12666145018, "lat": 59.913377, "lon": 10.754766, "tags": {"addr:city": "Oslo", "addr:housenumber": "9", "addr:postcode": "0184", "addr:street": "Stenersgata"}}, {"type": "node", "id": 12756589886, "lat": 59.915429, "lon": 10.754329, "tags": {"addr:city": "Oslo", "addr:housenumber": "3D", "addr:postcode": "0183", "addr:street": "Ebbells gate"}}, {"type": "node", "id": 13091740272, "lat": 59.916379, "lon": 10.754372, "tags": {"addr:city": "Oslo", "addr:housenumber": "10", "addr:postcode": "0183", "addr:street": "Calmeyers gate"}}, {"type": "node", "id": 13091740281, "lat": 59.919461, "lon": 10.75164, "tags": {"addr:city": "Oslo", "addr:housenumber": "42B", "addr:postcode": "0182", "addr:street": "Hausmanns gate"}}, {"type": "node", "id": 13091740282, "lat": 59.919588, "lon": 10.75179, "tags": {"addr:city": "Oslo", "addr:housenumber": "42D", "addr:postcode": "0182", "addr:street": "Hausmanns gate"}}, {"type": "node", "id": 13091740283, "lat": 59.919618, "lon": 10.751836, "tags": {"addr:city": "Oslo", "addr:housenumber": "42E", "addr:postcode": "0182", "addr:street": "Hausmanns gate"}}, {"type": "node", "id": 13091740284, "lat": 59.919642, "lon": 10.751875, "tags": {"addr:city": "Oslo", "addr:housenumber": "42F", "addr:postcode": "0182", "addr:street": "Hausmanns gate"}}, {"type": "node", "id": 13091740294, "lat": 59.919023, "lon": 10.757724, "tags": {"addr:city": "Oslo", "addr:housenumber": "3C", "addr:postcode": "0550", "addr:street": "Leirfallsgata"}}, {"type": "node", "id": 13091775204, "lat": 59.918947, "lon": 10.757693, "tags": {"addr:city": "Oslo", "addr:housenumber": "3B", "addr:postcode": "0550", "addr:street": "Leirfallsgata"}}, {"type": "node", "id": 13091775205, "lat": 59.919076, "lon": 10.757505, "tags": {"addr:city": "Oslo", "addr:housenumber": "58A", "addr:postcode": "0550", "addr:street": "Markveien"}}, {"type": "node", "id": 13091775206, "lat": 59.919011, "lon": 10.757639, "tags": {"addr:city": "Oslo", "addr:housenumber": "3A", "addr:postcode": "0550", "addr:street": "Leirfallsgata"}}, {"type": "node", "id": 13091775207, "lat": 59.919561, "lon": 10.751758, "tags": {"addr:city": "Oslo", "addr:housenumber": "42C", "addr:postcode": "0182", "addr:street": "Hausmanns gate"}}, {"type": "node", "id": 13091775234, "lat": 59.919011, "lon": 10.75748, "tags": {"addr:city": "Oslo", "addr:housenumber": "58B", "addr:postcode": "0550", "addr:street": "Markveien"}}, {"type": "node", "id": 13091775264, "lat": 59.916012, "lon": 10.753503, "tags": {"addr:city": "Oslo", "addr:housenumber": "8C", "addr:postcode": "0183", "addr:street": "Calmeyers gate"}}, {"type": "node", "id": 13091775265, "lat": 59.916038, "lon": 10.753531, "tags": {"addr:city": "Oslo", "addr:housenumber": "8", "addr:postcode": "0183", "addr:street": "Calmeyers gate"}}, {"type": "node", "id": 13091775266, "lat": 59.91603, "lon": 10.753548, "tags": {"addr:city": "Oslo", "addr:housenumber": "8D", "addr:postcode": "0183", "addr:street": "Calmeyers gate"}}, {"type": "node", "id": 13091775267, "lat": 59.916075, "lon": 10.753649, "tags": {"addr:city": "Oslo", "addr:housenumber": "8E", "addr:postcode": "0183", "addr:street": "Calmeyers gate"}}]}